 2014  813 1624 40.0 L  10.708 -66.810  5.0F FUN  6 0.6 1.9WFUN                1
 SPEC AVERAGE  MO 11.9 ST0.258 OM  0.7 f0 5.39 R0.2555 AL 2.10 WI 12.8 MW  1.9 3
 SPEC SD       MO  0.2 ST0.121 OM  0.2 f00.913 R0.0491 AL      WI      MW  0.1 3
 GAP=218        1.42       7.1     2.6  0.0 -0.1613E+01  0.0000E+00  0.0000E+00E
 SPEC BAUVHH N MO 12.0 ST0.105 OM  0.6 f0 3.97 R0.3355 AL 1.51 WI 11.4 MW  1.9 3
 SPEC BAUVHH N T162543 K 0.000 GD  153 VS 3.60 DE 3.00 Q0440.0 QA 0.70 VS 3.60 3
 SPEC CUPVHH E MO 12.2 ST0.443 OM  1.0 f0 5.20 R0.2562 AL 2.21 WI 11.4 MW  2.1 3
 SPEC CUPVHH E T162518 K 0.000 GD  115 VS 3.60 DE 3.00 Q0440.0 QA 0.70 VS 3.60 3
 SPEC TURVHH N MO 11.7 ST0.220 OM  0.5 f0 6.19 R0.2152 AL 1.94 WI 15.9 MW  1.7 3
 SPEC TURVHH N T162512 K 0.000 GD  107 VS 3.60 DE 3.00 Q0440.0 QA 0.70 VS 3.60 3
 SPEC BIRVHH E MO 11.8 ST0.264 OM  0.8 f0 6.19 R0.2152 AL 2.74 WI 12.5 MW  1.8 3
 SPEC BIRVHH E T162458 K 0.000 GD 64.7 VS 3.60 DE 3.00 Q0440.0 QA 0.70 VS 3.60 3
 ACTION:UP  14-08-14 14:05 OP:mig  STATUS:               ID:20140813162330     I
 OLDACT:UP  14-08-14 14:02 OP:mig  STATUS:               ID:20140813162330     3
 OLDACT:UP  14-08-14 12:52 OP:mig  STATUS:               ID:20140813162330     3
 OLDACT:REG 14-08-14 11:45 OP:mig  STATUS:               ID:20140813162330     3
 2014-08-13-1623-30S.MAN___155                                                 6
 STAT SP IPHASW D HRMM SECON CODA AMPLIT PERI AZIMU VELO AIN AR TRES W  DIS CAZ7
 CARV HZ EP       1624 44.41                             103   -0.2510 26.1 210 
 CARV HN ES       1624 47.30                             103   -0.8410 26.1 210 
 FUNV HZ EP       1624 44.36                             103   -0.3610 26.4 180 
 BIRV HZ EP       1624 50.78                              65   -0.4210 64.5 113 
 BIRV HE ES       1624 59.10                              65   -0.4110 64.5 113 
 TURV HZ EP       1624 59.14                              65   -0.2510  116 256 
 TURV HN ES       1625 13.60                              65   -0.1710  116 256 
 CUPV HZ EP       1625  2.28                              65    0.1510  133 123 
 CUPV HE ES       1625 19.07                              65    0.5510  133 123 
 BAUV HZ EP       1625 16.05                              43    0.4410  237 215 
 BAUV HN ES       1625 43.54                              43    1.5610  237 215 
                                                                                
 2014  816 0109 53.8 L  10.143 -67.947  1.6  FUN  9 0.4 2.5WFUN                1
 SPEC AVERAGE  MO 12.8 ST0.195 OM  1.6 f0 1.71 R1.4404 AL 2.85 WI 12.6 MW  2.5 3
 SPEC SD       MO  0.1 ST0.332 OM  0.2 f0 1.41 R0.9135 AL      WI      MW  0.1 3
 GAP= 92        1.12       2.2     1.9  3.3 -0.1647E+01 -0.8699E+00  0.9954E+00E
 SPEC TURVHH N MO 12.7 ST0.002 OM  2.0 f00.600 R2.2200 AL 1.48 WI 11.4 MW  2.4 3
 SPEC TURVHH N T 110 2 K 0.000 GD 35.9 VS 3.60 DE 3.00 Q0440.0 QA 0.70 VS 3.60 3
 SPEC SOCVHH N MO 12.7 ST0.009 OM  1.2 f0 1.04 R1.2808 AL 2.75 WI 12.3 MW  2.4 3
 SPEC SOCVHH N T 11126 K 0.000 GD  194 VS 3.60 DE 3.00 Q0440.0 QA 0.70 VS 3.60 3
 SPEC MONVHH N MO 12.9 ST0.010 OM  1.5 f00.875 R1.5223 AL 3.31 WI 15.0 MW  2.5 3
 SPEC MONVHH N T 111 9 K 0.000 GD  172 VS 3.60 DE 3.00 Q0440.0 QA 0.70 VS 3.60 3
 SPEC MAPVHH N MO 12.9 ST0.001 OM  1.9 f00.470 R2.8340 AL 2.69 WI 17.6 MW  2.5 3
 SPEC MAPVHH N T 11014 K 0.000 GD 65.8 VS 3.60 DE 3.00 Q0440.0 QA 0.70 VS 3.60 3
 SPEC CURVHH N MO 12.9 ST0.003 OM  1.6 f00.553 R2.4087 AL 3.45 WI 10.6 MW  2.6 3
 SPEC CURVHH N T 11053 K 0.000 GD  148 VS 3.60 DE 3.00 Q0440.0 QA 0.70 VS 3.60 3
 SPEC CUPVHH N MO 12.8 ST  1.0 OM  1.4 f0 4.60 R0.2896 AL 4.08 WI 13.2 MW  2.4 3
 SPEC CUPVHH N T 11057 K 0.000 GD  153 VS 3.60 DE 3.00 Q0440.0 QA 0.70 VS 3.60 3
 SPEC BIRVHH N MO 12.9 ST0.255 OM  1.6 f0 2.58 R0.5163 AL 3.19 WI 11.4 MW  2.5 3
 SPEC BIRVHH N T 11046 K 0.000 GD  136 VS 3.60 DE 3.00 Q0440.0 QA 0.70 VS 3.60 3
 SPEC BAUVHH N MO 12.7 ST0.255 OM  1.5 f0 2.95 R0.4515 AL 1.87 WI  9.7 MW  2.4 3
 SPEC BAUVHH N T 11032 K 0.000 GD  115 VS 3.60 DE 3.00 Q0440.0 QA 0.70 VS 3.60 3
 ACTION:UP  14-08-18 11:17 OP:mig  STATUS:               ID:20140816010800     I
 OLDACT:UP  14-08-15 21:05 OP:rap  STATUS:               ID:20140816010800     3
 OLDACT:UP  14-08-15 21:02 OP:rap  STATUS:               ID:20140816010800     3
 OLDACT:UP  14-08-15 21:00 OP:rap  STATUS:               ID:20140816010800     3
 OLDACT:REG 14-08-15 20:56 OP:rap  STATUS:               ID:20140816010800     3
 2014-08-16-0108-00S.MAN___155                                                 6
 STAT SP IPHASW D HRMM SECON CODA AMPLIT PERI AZIMU VELO AIN AR TRES W  DIS CAZ7
 TURV HZ EP     C  110  0.12                              93    0.0110 35.9  19 
 TURV HN ES        110  4.23                              93   -0.5510 35.9  19 
 MAPV HZ EP        110  5.45                              92    0.1010 65.8 238 
 MAPV HN ES        110 14.19                              92    0.3010 65.8 238 
 FUNV HN ES        110 31.13                              65   -0.7210  130  74 
 BAUV HZ EP        110 16.14                              65   -0.0210  133 185 
 BAUV HN ES        110 32.30                              65   -0.4010  133 185 
 BIRV HZ EP        110 24.65                              43    0.7810  187  79 
 BIRV HN ES        110 46.57                              43    0.4510  187  79 
 CURV HZ EP        110 28.33                              43    0.3010  221 266 
 CURV HN ES        110 53.31                              43   -0.0510  221 266 
 CUPV HZ EP        110 30.01                              43    0.1210  237  92 
 CUPV HN ES        110 56.78                              43    0.1910  237  92 
 MONV HZ EP        110 37.81                              43    0.5610  298 312 
 MONV HN ES        111  9.28                              43   -0.1210  298 312 
 SOCV HZ EP        110 46.85                              43   -0.2610  380 238 
 SOCV HN ES        111 25.88                              43   -0.6810  380 238 
                                                                                
 2014  816 0202  3.2 L  10.149 -67.939  2.1  FUN  4 0.3 1.6WFUN                1
 SPEC AVERAGE  MO 11.5 ST0.009 OM  0.5 f0 2.41 R0.5784 AL 2.42 WI 11.3 MW  1.6 3
 SPEC SD       MO  0.2 ST0.006 OM  0.2 f00.498 R0.1217 AL      WI      MW  0.1 3
 GAP=140        0.73       4.1     6.2  8.8 -0.2356E+02 -0.5048E+02  0.3220E+02E
 SPEC TURVHH N MO 11.2 ST0.004 OM  0.5 f0 2.38 R0.5597 AL 1.80 WI 10.1 MW  1.4 3
 SPEC TURVHH N T 2 212 K 0.000 GD 35.1 VS 3.60 DE 3.00 Q0440.0 QA 0.70 VS 3.60 3
 SPEC MAPVHH N MO 11.7 ST0.005 OM  0.7 f0 1.81 R0.7359 AL 3.04 WI 14.1 MW  1.7 3
 SPEC MAPVHH N T 2 224 K 0.000 GD 66.9 VS 3.60 DE 3.00 Q0440.0 QA 0.70 VS 3.60 3
 SPEC BAUVHH N MO 11.5 ST0.018 OM  0.3 f0 3.03 R0.4396 AL 2.43 WI  9.7 MW  1.6 3
 SPEC BAUVHH N T 2 241 K 0.000 GD  115 VS 3.60 DE 3.00 Q0440.0 QA 0.70 VS 3.60 3
 ACTION:UP  14-08-18 11:41 OP:mig  STATUS:               ID:20140816020000     I
 OLDACT:UP  14-08-16 04:51 OP:rap  STATUS:               ID:20140816020000     3
 OLDACT:UP  14-08-16 04:50 OP:rap  STATUS:               ID:20140816020000     3
 OLDACT:REG 14-08-16 04:50 OP:rap  STATUS:               ID:20140816020000     3
 2014-08-16-0200-00S.MAN___155                                                 6
 STAT SP IPHASW D HRMM SECON CODA AMPLIT PERI AZIMU VELO AIN AR TRES W  DIS CAZ7
 TURV HZ EP     C  2 2  9.54                              94    0.1910 35.0  18 
 TURV HN ES        2 2 13.58                              94   -0.3210 35.0  18 
 MAPV HZ EP        2 2 15.00                              92    0.0610 66.9 238 
 MAPV HN ES        2 2 23.62                              92   -0.0010 66.9 238 
 BAUV HZ EP        2 2 26.02                              65    0.3910  134 185 
 BAUV HN ES        2 2 41.79                              65   -0.4410  134 185 
 BIRV HN ES        2 2 55.31                              43    0.1110  186  79 
                                                                                
 2014  816 0315 42.3 L  10.161 -67.985  5.0F FUN  4 0.5 1.8WFUN                1
 SPEC AVERAGE  MO 11.8 ST0.030 OM  0.7 f0 2.96 R0.4569 AL 2.91 WI 10.4 MW  1.8 3
 SPEC SD       MO  0.1 ST0.008 OM  0.1 f00.376 R0.0544 AL      WI      MW  0.1 3
 GAP=152        1.01       2.7     3.5  0.0 -0.5931E+01  0.0000E+00  0.0000E+00E
 SPEC TURVHH N MO 11.6 ST0.035 OM  0.9 f0 3.56 R0.3742 AL 2.46 WI  9.2 MW  1.7 3
 SPEC TURVHH N T 31552 K 0.000 GD 36.0 VS 3.60 DE 3.00 Q0440.0 QA 0.70 VS 3.60 3
 SPEC MAPVHH N MO 11.7 ST0.019 OM  0.7 f0 2.79 R0.4774 AL 3.86 WI 11.0 MW  1.7 3
 SPEC MAPVHH N T 316 1 K 0.000 GD 63.6 VS 3.60 DE 3.00 Q0440.0 QA 0.70 VS 3.60 3
 SPEC BIRVHH N MO 11.9 ST0.039 OM  0.6 f0 2.95 R0.4515 AL 3.07 WI  9.2 MW  1.9 3
 SPEC BIRVHH N T 31635 K 0.000 GD  138 VS 3.60 DE 3.00 Q0440.0 QA 0.70 VS 3.60 3
 SPEC BAUVHH N MO 11.9 ST0.026 OM  0.7 f0 2.54 R0.5244 AL 2.24 WI 12.3 MW  1.9 3
 SPEC BAUVHH N T 31619 K 0.000 GD  116 VS 3.60 DE 3.00 Q0440.0 QA 0.70 VS 3.60 3
 ACTION:UP  14-08-18 11:46 OP:mig  STATUS:               ID:20140816031300     I
 OLDACT:UP  14-08-16 04:55 OP:rap  STATUS:               ID:20140816031300     3
 OLDACT:UP  14-08-16 04:54 OP:rap  STATUS:               ID:20140816031300     3
 OLDACT:REG 14-08-16 04:53 OP:rap  STATUS:               ID:20140816031300     3
 2014-08-16-0313-00S.MAN___155                                                 6
 STAT SP IPHASW D HRMM SECON CODA AMPLIT PERI AZIMU VELO AIN AR TRES W  DIS CAZ7
 TURV HZ IP     C  315 48.52                              98   -0.1110 35.7  27 
 TURV HN ES        315 52.69                              98   -0.6110 35.7  27 
 MAPV HZ EP        315 53.62                              65    0.2610 63.4 235 
 MAPV HN ES        316  1.84                              65    0.3010 63.4 235 
 BAUV HZ EP        316  4.34                              65   -0.3410  135 183 
 BAUV HN ES        316 20.64                              65   -0.6010  135 183 
 BIRV HZ EP        316 12.92                              43    0.5310  191  79 
 BIRV HN ES        316 35.23                              43    0.5710  191  79 
                                                                                
 2014  816 0916 31.8 L  10.147 -67.892  5.0F FUN  6 0.5 2.0WFUN                1
 SPEC AVERAGE  MO 12.0 ST0.152 OM  0.8 f0 3.56 R0.4618 AL 2.80 WI 13.9 MW  2.0 3
 SPEC SD       MO  4.9 ST0.107 OM  0.4 f0 1.94 R0.3058 AL      WI      MW  0.8 3
 GAP=103        1.05       2.2     2.2  0.0 -0.1155E+01  0.0000E+00  0.0000E+00E
 SPEC MERVHH N MO 12.2 ST0.113 OM  0.9 f0 3.33 R0.4000 AL 2.86 WI 15.3 MW  2.1 3
 SPEC MERVHH N T 91725 K 0.000 GD  141 VS 3.60 DE 3.00 Q0440.0 QA 0.70 VS 3.60 3
 SPEC FUNVHH N MO 12.0 ST0.055 OM  0.8 f0 3.07 R0.4339 AL 2.06 WI 16.4 MW  2.0 3
 SPEC FUNVHH N T 917 7 K 0.000 GD  111 VS 3.60 DE 3.00 Q0440.0 QA 0.70 VS 3.60 3
 SPEC TURVHH N MO 11.8 ST0.211 OM  1.1 f0 5.63 R0.2366 AL 2.46 WI  7.2 MW  1.8 3
 SPEC TURVHH N T 91641 K 0.000 GD 34.4 VS 3.60 DE 3.00 Q0440.0 QA 0.70 VS 3.60 3
 SPEC SANVHH N MO 12.0 ST0.057 OM  0.7 f0 3.11 R0.4283 AL 4.34 WI 13.2 MW  2.0 3
 SPEC SANVHH N T 91724 K 0.000 GD  139 VS 3.60 DE 3.00 Q0440.0 QA 0.70 VS 3.60 3
 SPEC CURVHH N MO 11.8 ST0.003 OM  0.5 f0 1.33 R1.0015 AL 2.81 WI 15.0 MW  1.8 3
 SPEC CURVHH N T 91733 K 0.000 GD  150 VS 3.60 DE 3.00 Q0440.0 QA 0.70 VS 3.60 3
 SPEC BIRVHH N MO 12.2 ST0.045 OM  0.9 f0 2.51 R0.5307 AL 2.73 WI 11.0 MW  2.1 3
 SPEC BIRVHH N T 91720 K 0.000 GD  132 VS 3.60 DE 3.00 Q0440.0 QA 0.70 VS 3.60 3
 SPEC BAUVHH N MO 12.3 ST0.474 OM  1.1 f0 4.92 R0.2707 AL 2.26 WI 16.4 MW  2.2 3
 SPEC BAUVHH N T 917 8 K 0.000 GD  115 VS 3.60 DE 3.00 Q0440.0 QA 0.70 VS 3.60 3
 ACTION:UP  14-08-18 11:58 OP:mig  STATUS:               ID:20140816091400     I
 OLDACT:UP  14-08-18 11:57 OP:mig  STATUS:               ID:20140816091400     3
 OLDACT:UP  14-08-18 11:56 OP:mig  STATUS:               ID:20140816091400     3
 OLDACT:UP  14-08-16 05:02 OP:rap  STATUS:               ID:20140816091400     3
 OLDACT:UP  14-08-16 05:01 OP:rap  STATUS:               ID:20140816091400     3
 OLDACT:REG 14-08-16 04:59 OP:rap  STATUS:               ID:20140816091400     3
 2014-08-16-0914-00S.MAN___155                                                 6
 STAT SP IPHASW D HRMM SECON CODA AMPLIT PERI AZIMU VELO AIN AR TRES W  DIS CAZ7
 TURV HZ IP     C  916 37.67                              98   -0.1210 34.0  10 
 TURV HN ES        916 41.72                              98   -0.5410 34.0  10 
 FUNV HZ EP        916 52.26                              65   -0.1910  124  73 
 FUNV HN ES        917  7.99                              65    0.2310  124  73 
 BAUV HZ EP        916 53.69                              65   -0.3410  134 187 
 BAUV HN ES        917  9.68                              65   -0.8210  134 187 
 SANV HZ EP        917  1.84                              43   -0.4710  194 249 
 SANV HN ES        917 25.47                              43    0.5610  194 249 
 MERV HZ EP        917  3.53                              43    0.4810  201 119 
 MERV HN ES        917 26.69                              43    0.4910  201 119 
 CURV HZ EP        917  6.69                              43    0.4210  227 266 
 CURV HN ES        917 32.13                              43    0.3210  227 266 
                                                                                
 2014  816 0931 19.1 L  10.133 -67.731  8.4  FUN  3 0.3 1.5WFUN                1
 SPEC AVERAGE  MO 11.4 ST0.072 OM  0.3 f0 5.27 R0.2617 AL 2.60 WI 11.4 MW  1.5 3
 SPEC SD       MO  0.1 ST0.037 OM  0.2 f0 1.03 R0.0450 AL      WI      MW  0.1 3
 GAP=147        0.85       2.0     4.8 10.5  0.2058E+00 -0.3709E+02 -0.1621E+01E
 SPEC TURVHH N MO 11.2 ST0.032 OM  0.5 f0 4.60 R0.2896 AL 1.70 WI  7.9 MW  1.4 3
 SPEC TURVHH N T 93130 K 0.000 GD 37.8 VS 3.60 DE 3.00 Q0440.0 QA 0.70 VS 3.60 3
 SPEC BIRVHH N MO 11.6 ST0.063 OM  0.3 f0 4.48 R0.2973 AL 1.84 WI 15.0 MW  1.7 3
 SPEC BIRVHH N T 932 3 K 0.000 GD  128 VS 3.60 DE 3.00 Q0440.0 QA 0.70 VS 3.60 3
 SPEC BAUVHH N MO 11.3 ST0.122 OM  0.1 f0 6.72 R0.1982 AL 4.27 WI 11.4 MW  1.5 3
 SPEC BAUVHH N T 93158 K 0.000 GD  116 VS 3.60 DE 3.00 Q0440.0 QA 0.70 VS 3.60 3
 ACTION:UP  14-08-16 05:19 OP:rap  STATUS:               ID:20140816092900     I
 OLDACT:UP  14-08-16 05:13 OP:rap  STATUS:               ID:20140816092900     3
 OLDACT:REG 14-08-16 05:08 OP:rap  STATUS:               ID:20140816092900     3
 2014-08-16-0929-00S.MAN___155                                                 6
 STAT SP IPHASW D HRMM SECON CODA AMPLIT PERI AZIMU VELO AIN AR TRES W  DIS CAZ7
 TURV HZ EP     C  931 26.18                              65    0.4610 36.9 341 
 TURV HN ES        931 30.33                              65   -0.2610 36.9 341 
 BAUV HZ EP        931 41.48                              65    0.0410  136 195 
 BAUV HN ES        931 57.92                              65   -0.0210  136 195 
 BIRV HZ EP        931 45.09                              43   -0.5010  165  77 
 BIRV HN ES        932  5.45                              43    0.2910  165  77 
                                                                                
