 2014  816 1438 43.7 L  10.484 -67.678 10.9  FUN  4 0.1 1.7WFUN                1
 SPEC AVERAGE  MO 11.6 ST0.176 OM  0.5 f0 5.39 R0.2586 AL 1.81 WI 15.9 MW  1.7 3
 SPEC SD       MO  0.3 ST0.140 OM  0.2 f0 1.16 R0.0546 AL      WI      MW  0.2 3
 GAP=192        0.47      11.4    10.1 12.7 -0.1117E+03 -0.1271E+03  0.1408E+03E
 SPEC TURVHH E MO 11.2 ST0.020 OM  0.7 f0 4.13 R0.3225 AL 0.84 WI 14.7 MW  1.4 3
 SPEC TURVHH E T143849 K 0.000 GD 21.1 VS 3.60 DE 3.00 Q0440.0 QA 0.70 VS 3.60 3
 SPEC MAPVHH E MO 11.7 ST0.307 OM  0.5 f0 6.92 R0.1925 AL 1.69 WI 23.6 MW  1.7 3
 SPEC MAPVHH E T143913 K 0.000 GD  107 VS 3.60 DE 3.00 Q0440.0 QA 0.70 VS 3.60 3
 SPEC BIRVHH N MO 11.9 ST0.324 OM  0.6 f0 6.11 R0.2180 AL 3.22 WI 15.9 MW  1.9 3
 SPEC BIRVHH N T143926 K 0.000 GD  130 VS 3.60 DE 3.00 Q0440.0 QA 0.70 VS 3.60 3
 SPEC BAUVHH N MO 11.5 ST0.053 OM  0.2 f0 4.42 R0.3014 AL 1.48 WI  9.4 MW  1.6 3
 SPEC BAUVHH N T143930 K 0.000 GD  141 VS 3.60 DE 3.00 Q0440.0 QA 0.70 VS 3.60 3
 ACTION:UP  14-08-27 11:34 OP:mig  STATUS:               ID:20140816143402d    I
 OLDACT:UP  14-08-27 11:33 OP:mig  STATUS:               ID:20140816143402d    3
 OLDACT:UP  14-08-16 15:38 OP:re   STATUS:               ID:20140816143402d    3
 OLDACT:UP  14-08-16 15:38 OP:re   STATUS:               ID:20140816143402d    3
 OLDACT:DUP 14-08-16 15:37 OP:re   STATUS:               ID:20140816143402d    3
 OLDACT:DUP 14-08-16 15:36 OP:re   STATUS:               ID:20140816143401d    3
 OLDACT:REE 14-08-16 15:36 OP:re   STATUS:               ID:20140816143400     3
 2014-08-16-1434-00S.MAN___155                                                 6
 STAT SP IPHASW D HRMM SECON CODA AMPLIT PERI AZIMU VELO AIN AR TRES W  DIS CAZ7
 TURV HZ EP       1438 47.37                             113    0.0210 18.1 258 
 TURV HE ES       1438 50.00                             113   -0.0510 18.1 258 
 MAPV HZ EP       1439  2.15                              91   -0.0110  112 230 
 MAPV HE ES       1439 15.73                              91   -0.0910  112 230 
 BIRV HN ES       1439 26.95                              49   -0.1210  154  90 
 BAUV HZ EP       1439 11.46                              49    0.3510  175 193 
 BAUV HN ES       1439 31.29                              49   -0.1110  175 193 
                                                                                
 2014  816 1438 43.8 L  10.484 -67.675 11.2  FUN  4 0.3 1.5WFUN                1
 SPEC AVERAGE  MO 11.3 ST0.110 OM  0.3 f0 5.77 R0.2448 AL 1.92 WI  8.3 MW  1.5 3
 SPEC SD       MO  0.2 ST0.101 OM  0.3 f0 1.40 R0.0584 AL      WI      MW  0.1 3
 GAP=192        0.86      55.4    20.8 45.4 -0.1146E+04 -0.9398E+03  0.2504E+04E
 SPEC TURVHH E MO 11.2 ST0.023 OM  0.7 f0 4.28 R0.3112 AL 0.89 WI  4.5 MW  1.4 3
 SPEC TURVHH E T143849 K 0.000 GD 21.6 VS 3.60 DE 3.00 Q0440.0 QA 0.70 VS 3.60 3
 SPEC MAPVHH N MO 11.1 ST0.101 OM -0.1 f0 7.56 R0.1762 AL 2.71 WI  7.2 MW  1.3 3
 SPEC MAPVHH N T143915 K 0.000 GD  107 VS 3.60 DE 3.00 Q0440.0 QA 0.70 VS 3.60 3
 SPEC BIRVHH N MO 11.7 ST0.277 OM  0.4 f0 6.72 R0.1982 AL 3.04 WI 12.3 MW  1.7 3
 SPEC BIRVHH N T143926 K 0.000 GD  133 VS 3.60 DE 3.00 Q0440.0 QA 0.70 VS 3.60 3
 SPEC BAUVHH N MO 11.3 ST0.037 OM  0.0 f0 4.54 R0.2934 AL 1.05 WI  9.2 MW  1.5 3
 SPEC BAUVHH N T143931 K 0.000 GD  145 VS 3.60 DE 3.00 Q0440.0 QA 0.70 VS 3.60 3
 ACTION:UP  14-08-27 11:41 OP:mig  STATUS:               ID:20140816143700     I
 OLDACT:UP  14-08-27 11:40 OP:mig  STATUS:               ID:20140816143700     3
 OLDACT:UP  14-08-16 17:01 OP:re   STATUS:               ID:20140816143700     3
 OLDACT:REG 14-08-16 17:00 OP:re   STATUS:               ID:20140816143700     3
 2014-08-16-1437-00S.MAN___155                                                 6
 STAT SP IPHASW D HRMM SECON CODA AMPLIT PERI AZIMU VELO AIN AR TRES W  DIS CAZ7
 TURV HZ EP       1438 47.39                             110   -0.1410 18.5 258 
 TURV HE ES       1438 50.00                             110   -0.2810 18.5 258 
 MAPV HZ EP       1439  2.31                              65   -0.0210  112 230 
 MAPV HN ES       1439 16.10                              65    0.0810  112 230 
 BIRV HN ES       1439 26.98                              65   -0.0910  154  90 
 BAUV HZ EP       1439 11.95                              43    0.7310  175 193 
 BAUV HN ES       1439 31.23                              43   -0.2710  175 193 
                                                                                
 2014  816 1646  8.6 L  10.505 -67.762 15.1  FUN  3 0.1 1.7WFUN                1
 SPEC AVERAGE  MO 11.6 ST0.046 OM  0.6 f0 4.05 R0.3437 AL 1.77 WI  3.1 MW  1.7 3
 SPEC SD       MO  0.4 ST0.017 OM  0.0 f00.840 R0.0713 AL      WI      MW  0.3 3
 GAP=316        0.43       7.5     6.1  3.6 -0.3659E+02 -0.1868E+02  0.2392E+02E
 SPEC TURVHH E MO 11.1 ST0.029 OM  0.7 f0 4.89 R0.2724 AL 1.21 WI  3.4 MW  1.4 3
 SPEC TURVHH E T164613 K 0.000 GD 18.3 VS 3.60 DE 3.00 Q0440.0 QA 0.70 VS 3.60 3
 SPEC BAUVHH E MO 12.0 ST0.063 OM  0.6 f0 3.21 R0.4150 AL 2.34 WI  2.8 MW  2.0 3
 SPEC BAUVHH E T164655 K 0.000 GD  175 VS 3.60 DE 3.00 Q0440.0 QA 0.70 VS 3.60 3
 ACTION:UP  14-08-27 11:59 OP:mig  STATUS:               ID:20140816164500     I
 OLDACT:UP  14-08-27 11:58 OP:mig  STATUS:               ID:20140816164500     3
 OLDACT:UP  14-08-16 17:14 OP:re   STATUS:               ID:20140816164500     3
 OLDACT:REG 14-08-16 17:14 OP:re   STATUS:               ID:20140816164500     3
 2014-08-16-1645-00S.MAN___155                                                 6
 STAT SP IPHASW D HRMM SECON CODA AMPLIT PERI AZIMU VELO AIN AR TRES W  DIS CAZ7
 TURV HZ EP       1646 11.47                             143   -0.2210 10.4 234 
 TURV HE ES       1646 14.12                             143    0.1310 10.4 234 
 MAPV HZ EP       1646 26.33                              94    0.1010  107 226 
 MAPV HN ES       1646 39.24                              94   -0.0510  107 226 
 BAUV HZ EP       1646 35.74                              49    0.1310  175 190 
 BAUV HE ES       1646 55.54                              49   -0.0710  175 190 
                                                                                
 2014  816 1859 23.4 L  10.490 -67.677  9.5  FUN  4 0.3 2.2WFUN                1
 SPEC AVERAGE  MO 12.4 ST0.340 OM  1.4 f0 4.08 R0.3341 AL 0.53 WI 12.8 MW  2.2 3
 SPEC SD       MO  0.1 ST0.082 OM  0.4 f00.622 R0.0512 AL      WI      MW  0.1 3
 GAP=194        0.74      10.6     9.1 13.1 -0.9108E+02 -0.1163E+03  0.1277E+03E
 SPEC TURVHH N MO 12.5 ST0.215 OM  2.0 f0 3.37 R0.3953 AL 0.38 WI 12.1 MW  2.3 3
 SPEC TURVHH N T185928 K 0.000 GD 20.6 VS 3.60 DE 3.00 Q0440.0 QA 0.70 VS 3.60 3
 SPEC MAPVHH N MO 12.3 ST0.385 OM  1.1 f0 4.73 R0.2816 AL 0.88 WI 14.4 MW  2.1 3
 SPEC MAPVHH N T185956 K 0.000 GD  105 VS 3.60 DE 3.00 Q0440.0 QA 0.70 VS 3.60 3
 SPEC BIRVHH N MO 12.4 ST0.434 OM  1.1 f0 4.67 R0.2852 AL 0.59 WI 15.6 MW  2.2 3
 SPEC BIRVHH N T19 0 6 K 0.000 GD  124 VS 3.60 DE 3.00 Q0440.0 QA 0.70 VS 3.60 3
 SPEC BAUVHH N MO 12.6 ST0.326 OM  1.3 f0 3.56 R0.3742 AL 0.26 WI  9.0 MW  2.3 3
 SPEC BAUVHH N T19 011 K 0.000 GD  132 VS 3.60 DE 3.00 Q0440.0 QA 0.70 VS 3.60 3
 ACTION:UP  14-08-27 13:59 OP:mig  STATUS:               ID:20140816185800     I
 OLDACT:UP  14-08-16 15:57 OP:re   STATUS:               ID:20140816185800     3
 OLDACT:UP  14-08-16 15:56 OP:re   STATUS:               ID:20140816185800     3
 OLDACT:UP  14-08-16 15:55 OP:re   STATUS:               ID:20140816185800     3
 OLDACT:UP  14-08-16 15:53 OP:re   STATUS:               ID:20140816185800     3
 OLDACT:REG 14-08-16 15:53 OP:re   STATUS:               ID:20140816185800     3
 2014-08-16-1858-00S.MAN___155                                                 6
 STAT SP IPHASW D HRMM SECON CODA AMPLIT PERI AZIMU VELO AIN AR TRES W  DIS CAZ7
 TURV HZ EP       1859 27.10                             104    0.1310 18.3 256 
 TURV HN ES       1859 29.53                             104   -0.1110 18.3 256 
 MAPV HZ EP       1859 41.62                              90   -0.2810  112 230 
 MAPV HN ES       1859 55.57                              90   -0.0510  112 230 
 BIRV HZ EP       1859 48.74                              49    0.3010  154  90 
 BIRV HN ES       19 0  6.60                              49   -0.3910  154  90 
 BAUV HZ EP       1859 51.48                              49    0.4710  176 193 
 BAUV HN ES       19 0 11.40                              49   -0.0710  176 193 
                                                                                
 2014  816 2006 38.3 L  10.518 -67.702 14.1  FUN  3 0.0 1.7WFUN                1
 SPEC AVERAGE  MO 11.6 ST0.135 OM  0.5 f0 5.49 R0.2452 AL 1.94 WI 11.8 MW  1.7 3
 SPEC SD       MO  0.2 ST0.070 OM  0.2 f00.541 R0.0248 AL      WI      MW  0.2 3
 GAP=208        0.33      14.4    11.5  9.9 -0.1627E+03 -0.1125E+03  0.1393E+03E
 SPEC TURVHH N MO 11.3 ST0.086 OM  0.8 f0 6.11 R0.2180 AL 1.46 WI 11.7 MW  1.5 3
 SPEC TURVHH N T20 643 K 0.000 GD 22.0 VS 3.60 DE 3.00 Q0440.0 QA 0.70 VS 3.60 3
 SPEC BIRVHH N MO 11.9 ST0.234 OM  0.5 f0 5.56 R0.2396 AL 2.69 WI 16.0 MW  1.9 3
 SPEC BIRVHH N T20 720 K 0.000 GD  157 VS 3.60 DE 3.00 Q0440.0 QA 0.70 VS 3.60 3
 SPEC BAUVHH N MO 11.6 ST0.085 OM  0.2 f0 4.79 R0.2781 AL 1.66 WI  7.7 MW  1.7 3
 SPEC BAUVHH N T20 725 K 0.000 GD  178 VS 3.60 DE 3.00 Q0440.0 QA 0.70 VS 3.60 3
 ACTION:UP  14-08-27 14:11 OP:mig  STATUS:               ID:20140816200500     I
 OLDACT:UP  14-08-27 14:10 OP:mig  STATUS:               ID:20140816200500     3
 OLDACT:UP  14-08-27 14:09 OP:mig  STATUS:               ID:20140816200500     3
 OLDACT:UP  14-08-16 15:59 OP:re   STATUS:               ID:20140816200500     3
 OLDACT:UP  14-08-16 15:59 OP:re   STATUS:               ID:20140816200500     3
 OLDACT:REG 14-08-16 15:58 OP:re   STATUS:               ID:20140816200500     3
 2014-08-16-2005-00S.MAN___155                                                 6
 STAT SP IPHASW D HRMM SECON CODA AMPLIT PERI AZIMU VELO AIN AR TRES W  DIS CAZ7
 TURV HZ EP       20 6 42.07                             126    0.0610 16.9 243 
 TURV HN ES       20 6 44.73                             126   -0.0410 16.9 243 
 BIRV HN ES       20 7 21.65                              49   -0.0010  157  92 
 BAUV HZ EP       20 7  5.69                              49   -0.0610  178 192 
 BAUV HN ES       20 7 26.11                              49    0.0310  178 192 
                                                                                
 2014  816 2116  2.1 L  10.519 -67.681  9.0  FUN  6 0.5 2.5WFUN                1
 SPEC AVERAGE  MO 12.8 ST  1.4 OM  1.6 f0 3.97 R0.3976 AL 0.65 WI 17.2 MW  2.5 3
 SPEC SD       MO  0.1 ST  1.5 OM  0.1 f0 1.53 R0.1676 AL      WI      MW  0.1 3
 GAP=206        1.36      12.5     6.4  7.8 -0.7037E+02 -0.4396E+02  0.7864E+02E
 SPEC MAPVHH N MO 12.9 ST0.141 OM  1.7 f0 2.13 R0.6254 AL 0.00 WI 18.1 MW  2.5 3
 SPEC MAPVHH N T211634 K 0.000 GD  106 VS 3.60 DE 3.00 Q0440.0 QA 0.70 VS 3.60 3
 SPEC BIRVHH N MO 13.0 ST  3.4 OM  1.7 f0 5.87 R0.2269 AL 1.63 WI 13.8 MW  2.6 3
 SPEC BIRVHH N T211645 K 0.000 GD  124 VS 3.60 DE 3.00 Q0440.0 QA 0.70 VS 3.60 3
 SPEC BAUVHH N MO 12.7 ST0.548 OM  1.4 f0 3.91 R0.3407 AL 0.32 WI 19.7 MW  2.4 3
 SPEC BAUVHH N T211648 K 0.000 GD  133 VS 3.60 DE 3.00 Q0440.0 QA 0.70 VS 3.60 3
 ACTION:UP  14-08-27 14:19 OP:mig  STATUS:               ID:20140816211500     I
 OLDACT:UP  14-08-27 14:19 OP:mig  STATUS:               ID:20140816211500     3
 OLDACT:UP  14-08-16 17:28 OP:re   STATUS:               ID:20140816211500     3
 OLDACT:UP  14-08-16 17:28 OP:re   STATUS:               ID:20140816211500     3
 OLDACT:UP  14-08-16 17:27 OP:re   STATUS:               ID:20140816211500     3
 OLDACT:UP  14-08-16 17:27 OP:re   STATUS:               ID:20140816211500     3
 OLDACT:UP  14-08-16 17:26 OP:re   STATUS:               ID:20140816211500     3
 OLDACT:UP  14-08-16 17:26 OP:re   STATUS:               ID:20140816211500     3
 OLDACT:UP  14-08-16 17:26 OP:re   STATUS:               ID:20140816211500     3
 OLDACT:REG 14-08-16 17:25 OP:re   STATUS:               ID:20140816211500     3
 2014-08-16-2115-00S.MAN___155                                                 6
 STAT SP IPHASW D HRMM SECON CODA AMPLIT PERI AZIMU VELO AIN AR TRES W  DIS CAZ7
 TURV HZ EP     D 2116  6.03                             115    0.2610 19.0 246 
 TURV HE ES       2116  8.56                             115    0.0610 19.0 246 
 FUNV HZ EP       2116 17.56                              65   -0.4210 95.5  93 
 FUNV HN ES       2116 29.25                              65   -0.5010 95.5  93 
 MAPV HZ EP       2116 20.38                              65   -0.5210  114 228 
 MAPV HN ES       2116 34.95                              65    0.1210  114 228 
 BIRV HZ EP       2116 28.13                              43    0.8710  155  92 
 BIRV HN ES       2116 45.63                              43   -0.2710  155  92 
 BAUV HZ EP       2116 30.20                              43    0.0510  179 193 
 BAUV HN ES       2116 50.33                              43   -0.5910  179 193 
 MERV HE ES       2116 57.74                              43    0.9510  207 133 
                                                                                
 2014  816 2126  1.2 L  10.151 -67.918  7.2  FUN  8 0.2 2.4WFUN                1
 SPEC AVERAGE  MO 12.6 ST0.129 OM  1.5 f0 2.46 R0.5690 AL 1.62 WI 18.1 MW  2.4 3
 SPEC SD       MO  0.1 ST0.073 OM  0.2 f00.539 R0.1249 AL      WI      MW  0.1 3
 GAP=108        0.65       1.9     1.3  2.9 -0.1212E+01 -0.1240E+01  0.3591E+01E
 SPEC MERVHH N MO 12.6 ST0.164 OM  1.3 f0 2.76 R0.4826 AL 2.51 WI 24.3 MW  2.4 3
 SPEC MERVHH N T212654 K 0.000 GD  142 VS 3.60 DE 3.00 Q0440.0 QA 0.70 VS 3.60 3
 SPEC FUNVHH N MO 12.5 ST0.151 OM  1.3 f0 2.91 R0.4577 AL 2.54 WI 16.0 MW  2.3 3
 SPEC FUNVHH N T212637 K 0.000 GD  112 VS 3.60 DE 3.00 Q0440.0 QA 0.70 VS 3.60 3
 SPEC TURVHH N MO 12.6 ST0.060 OM  1.9 f0 1.99 R0.6693 AL 1.13 WI 11.1 MW  2.3 3
 SPEC TURVHH N T212611 K 0.000 GD 34.9 VS 3.60 DE 3.00 Q0440.0 QA 0.70 VS 3.60 3
 SPEC SANVHH N MO 12.5 ST0.033 OM  1.2 f0 1.77 R0.7525 AL 1.59 WI 23.2 MW  2.3 3
 SPEC SANVHH N T212652 K 0.000 GD  138 VS 3.60 DE 3.00 Q0440.0 QA 0.70 VS 3.60 3
 SPEC MAPVHH N MO 12.6 ST0.256 OM  1.6 f0 3.24 R0.4111 AL 0.55 WI 17.3 MW  2.3 3
 SPEC MAPVHH N T212621 K 0.000 GD 69.3 VS 3.60 DE 3.00 Q0440.0 QA 0.70 VS 3.60 3
 SPEC BAUVHH N MO 12.8 ST0.113 OM  1.6 f0 2.08 R0.6404 AL 1.41 WI 16.4 MW  2.5 3
 SPEC BAUVHH N T212638 K 0.000 GD  115 VS 3.60 DE 3.00 Q0440.0 QA 0.70 VS 3.60 3
 ACTION:UP  14-08-27 14:28 OP:mig  STATUS:               ID:20140816212500     I
 OLDACT:UP  14-08-27 14:26 OP:mig  STATUS:               ID:20140816212500     3
 OLDACT:UP  14-08-16 17:34 OP:re   STATUS:               ID:20140816212500     3
 OLDACT:UP  14-08-16 17:33 OP:re   STATUS:               ID:20140816212500     3
 OLDACT:UP  14-08-16 17:33 OP:re   STATUS:               ID:20140816212500     3
 OLDACT:UP  14-08-16 17:33 OP:re   STATUS:               ID:20140816212500     3
 OLDACT:UP  14-08-16 17:32 OP:re   STATUS:               ID:20140816212500     3
 OLDACT:UP  14-08-16 17:31 OP:re   STATUS:               ID:20140816212500     3
 OLDACT:REG 14-08-16 17:31 OP:re   STATUS:               ID:20140816212500     3
 2014-08-16-2125-00S.MAN___155                                                 6
 STAT SP IPHASW D HRMM SECON CODA AMPLIT PERI AZIMU VELO AIN AR TRES W  DIS CAZ7
 TURV HZ EP     C 2126  7.46                             102    0.1910 34.1  15 
 TURV HN ES       2126 11.63                             102   -0.1710 34.1  15 
 MAPV HZ EP       2126 12.85                              65   -0.0810 68.9 239 
 MAPV HN ES       2126 21.55                              65   -0.0910 68.9 239 
 FUNV HZ EP       2126 21.60                              65   -0.4810  126  74 
 FUNV HN ES       2126 37.72                              65    0.1510  126  74 
 BAUV HZ EP       2126 23.33                              65    0.0510  134 186 
 BAUV HN ES       2126 39.54                              65   -0.1210  134 186 
 SANV HZ EP       2126 31.16                              43    0.0410  192 248 
 SANV HN ES       2126 53.10                              43   -0.2010  192 248 
 MERV HZ EP       2126 32.88                              43    0.4010  204 119 
 MERV HN ES       2126 55.73                              43    0.0710  204 119 
 CURV HZ EP       2126 35.47                              43    0.4210  224 266 
 CUPV HE ES       2127  1.88                              43   -0.1710  234  92 
                                                                                
 2014  816 2213 34.6 L  10.146 -67.925  5.0F FUN  5 0.4 2.2WFUN                1
 SPEC AVERAGE  MO 12.5 ST0.396 OM  1.2 f0 3.90 R0.4839 AL 2.73 WI 13.7 MW  2.2 3
 SPEC SD       MO  0.2 ST0.351 OM  0.2 f0 1.80 R0.3129 AL      WI      MW  0.1 3
 GAP=136        0.92       2.0     2.5  0.0 -0.2083E+01  0.0000E+00  0.0000E+00E
 SPEC MERVHH N MO 12.2 ST0.290 OM  0.9 f0 4.54 R0.2934 AL 3.05 WI 11.8 MW  2.1 3
 SPEC MERVHH N T221429 K 0.000 GD  142 VS 3.60 DE 3.00 Q0440.0 QA 0.70 VS 3.60 3
 SPEC BIRVHH N MO 12.4 ST0.870 OM  1.1 f0 5.71 R0.2333 AL 3.61 WI 16.6 MW  2.2 3
 SPEC BIRVHH N T221425 K 0.000 GD  136 VS 3.60 DE 3.00 Q0440.0 QA 0.70 VS 3.60 3
 SPEC BAUVHH N MO 12.7 ST0.030 OM  1.5 f0 1.44 R0.9250 AL 1.52 WI 12.6 MW  2.4 3
 SPEC BAUVHH N T221412 K 0.000 GD  115 VS 3.60 DE 3.00 Q0440.0 QA 0.70 VS 3.60 3
 ACTION:UP  14-08-27 14:50 OP:mig  STATUS:               ID:20140816221200     I
 OLDACT:UP  14-08-27 14:49 OP:mig  STATUS:               ID:20140816221200     3
 OLDACT:UP  14-08-27 14:48 OP:mig  STATUS:               ID:20140816221200     3
 OLDACT:UP  14-08-27 14:47 OP:mig  STATUS:               ID:20140816221200     3
 OLDACT:UP  14-08-16 18:00 OP:re   STATUS:               ID:20140816221200     3
 OLDACT:UP  14-08-16 18:00 OP:re   STATUS:               ID:20140816221200     3
 OLDACT:UP  14-08-16 17:59 OP:re   STATUS:               ID:20140816221200     3
 OLDACT:UP  14-08-16 17:59 OP:re   STATUS:               ID:20140816221200     3
 OLDACT:UP  14-08-16 17:59 OP:re   STATUS:               ID:20140816221200     3
 OLDACT:UP  14-08-16 17:58 OP:re   STATUS:               ID:20140816221200     3
 OLDACT:UP  14-08-16 17:58 OP:re   STATUS:               ID:20140816221200     3
 OLDACT:UP  14-08-16 17:56 OP:re   STATUS:               ID:20140816221200     3
 OLDACT:REG 14-08-16 17:56 OP:re   STATUS:               ID:20140816221200     3
 2014-08-16-2212-00S.MAN___155                                                 6
 STAT SP IPHASW D HRMM SECON CODA AMPLIT PERI AZIMU VELO AIN AR TRES W  DIS CAZ7
 TURV HZ IP     C 2213 40.77                              98   -0.0410 34.9  16 
 TURV HN ES       2213 44.92                              98   -0.4610 34.9  16 
 MAPV HZ EP       2213 46.14                              65   -0.2710 68.0 239 
 MAPV HN ES       2213 55.74                              65    0.6110 68.0 239 
 BAUV HZ EP       2213 56.56                              65   -0.2510  134 185 
 BAUV HN ES       2214 12.84                              65   -0.3910  134 185 
 BIRV HZ EP       2214  4.37                              43    0.4010  185  78 
 BIRV HN ES       2214 26.32                              43    0.6310  185  78 
 MERV HN ES       2214 29.47                              43   -0.2310  204 119 
                                                                                
