 2014  816 1239  2.8 L  10.526 -67.658  4.2  FUN 29 0.9 4.2WFUN                1
 SPEC AVERAGE  MO 15.4 ST 12.9 OM  4.1 f0 1.26 R1.3486 AL 2.58 WI 70.3 MW  4.2 3
 SPEC SD       MO  0.3 ST 13.5 OM  0.2 f00.724 R0.6023 AL      WI      MW  0.2 3
 GAP= 94        2.47       4.2     2.2  5.3 -0.6455E+00 -0.1290E+01 -0.1108E+01E
 FELTINFO: Sismo Sentido: Reportado ampliamente en Maracay, Valencia y         3
 FELTINFO: diferentes sectores de Caracas                                      3
  173.0900   86.6000   19.7200                               1    FUN FOCMEC   F
 SPEC RIOVHH N MO 15.1 ST 47.4 OM  3.5 f0 2.75 R0.4844 AL 2.47 WI152.8 MW  4.0 3
 SPEC RIOVHH N T124135 K 0.000 GD  264 VS 3.60 DE 3.00 Q0440.0 QA 0.70 VS 3.60 3
 SPEC PAYVHH E MO 15.3 ST  1.7 OM  3.8 f00.753 R1.7689 AL 2.18 WI120.6 MW  4.2 3
 SPEC PAYVHH E T1241 3 K 0.000 GD  237 VS 3.60 DE 3.00 Q0440.0 QA 0.70 VS 3.60 3
 SPEC SOCVHH N MO 15.3 ST  2.1 OM  3.8 f00.840 R1.5857 AL 1.92 WI 64.2 MW  4.1 3
 SPEC SOCVHH N T124043 K 0.000 GD  207 VS 3.60 DE 3.00 Q0440.0 QA 0.70 VS 3.60 3
 SPEC PRGVHH E MO 16.0 ST 21.9 OM  4.5 f0 1.09 R1.2220 AL 3.04 WI 54.8 MW  4.6 3
 SPEC PRGVHH E T124036 K 0.000 GD  195 VS 3.60 DE 3.00 Q0440.0 QA 0.70 VS 3.60 3
 SPEC SDV BH 1 MO 15.7 ST 20.1 OM  4.2 f0 1.34 R0.9940 AL 3.01 WI 81.7 MW  4.4 3
 SPEC SDV BH 1 T124032 K 0.000 GD  193 VS 3.60 DE 3.00 Q0440.0 QA 0.70 VS 3.60 3
 SPEC PCRVHH N MO 15.6 ST  6.9 OM  4.2 f00.955 R1.3948 AL 3.58 WI 65.4 MW  4.4 3
 SPEC PCRVHH N T124027 K 0.000 GD  183 VS 3.60 DE 3.00 Q0440.0 QA 0.70 VS 3.60 3
 SPEC AUA1BH N MO 15.3 ST0.962 OM  3.9 f00.623 R2.1380 AL 1.85 WI 72.1 MW  4.2 3
 SPEC AUA1BH N T124022 K 0.000 GD  183 VS 3.60 DE 3.00 Q0440.0 QA 0.70 VS 3.60 3
 SPEC DABVHH N MO 15.3 ST0.406 OM  3.9 f00.469 R2.8401 AL 2.54 WI127.1 MW  4.2 3
 SPEC DABVHH N T124023 K 0.000 GD  181 VS 3.60 DE 3.00 Q0440.0 QA 0.70 VS 3.60 3
 SPEC SANVHH N MO 15.7 ST 14.1 OM  4.3 f0 1.19 R1.1193 AL 3.23 WI 58.5 MW  4.4 3
 SPEC SANVHH N T123959 K 0.000 GD  153 VS 3.60 DE 3.00 Q0440.0 QA 0.70 VS 3.60 3
 SPEC HATOBH N MO 15.3 ST 11.9 OM  4.0 f0 1.42 R0.9380 AL 2.65 WI 43.8 MW  4.2 3
 SPEC HATOBH N T1240 0 K 0.000 GD  152 VS 3.60 DE 3.00 Q0440.0 QA 0.70 VS 3.60 3
 SPEC MERVHH E MO 15.4 ST 15.9 OM  4.1 f0 1.48 R0.9000 AL 2.78 WI 43.9 MW  4.2 3
 SPEC MERVHH E T123955 K 0.000 GD  143 VS 3.60 DE 3.00 Q0440.0 QA 0.70 VS 3.60 3
 SPEC BIRVHH N MO 15.4 ST  7.1 OM  4.1 f0 1.19 R1.1193 AL 2.62 WI 51.1 MW  4.2 3
 SPEC BIRVHH N T123944 K 0.000 GD  123 VS 3.60 DE 3.00 Q0440.0 QA 0.70 VS 3.60 3
 SPEC MAPVHH N MO 15.2 ST  4.3 OM  4.0 f0 1.13 R1.1788 AL 2.29 WI 49.8 MW  4.1 3
 SPEC MAPVHH N T123935 K 0.000 GD  108 VS 3.60 DE 3.00 Q0440.0 QA 0.70 VS 3.60 3
 SPEC FUNVHH N MO 15.4 ST 33.7 OM  4.3 f0 1.88 R0.7085 AL 3.00 WI 36.6 MW  4.2 3
 SPEC FUNVHH N T123928 K 0.000 GD 93.1 VS 3.60 DE 3.00 Q0440.0 QA 0.70 VS 3.60 3
 SPEC TURVHH N MO 14.7 ST 35.1 OM  4.2 f0 3.33 R0.4000 AL 2.29 WI 16.5 MW  3.8 3
 SPEC TURVHH N T1239 9 K 0.000 GD 22.0 VS 3.60 DE 3.00 Q0440.0 QA 0.70 VS 3.60 3
 SPEC QARVHH N MO 15.7 ST  3.9 OM  4.3 f00.740 R1.8000 AL 3.12 WI120.2 MW  4.4 3
 SPEC QARVHH N T124018 K 0.000 GD  177 VS 3.60 DE 3.00 Q0440.0 QA 0.70 VS 3.60 3
 SPEC CURVHH N MO 15.3 ST  1.0 OM  3.9 f00.663 R2.0090 AL 2.22 WI 61.0 MW  4.1 3
 SPEC CURVHH N T1240 4 K 0.000 GD  160 VS 3.60 DE 3.00 Q0440.0 QA 0.70 VS 3.60 3
 SPEC BAUVHH N MO 15.5 ST  2.9 OM  4.2 f00.796 R1.6734 AL 1.58 WI 46.0 MW  4.3 3
 SPEC BAUVHH N T123950 K 0.000 GD  134 VS 3.60 DE 3.00 Q0440.0 QA 0.70 VS 3.60 3
 ACTION:UP  14-08-21 08:38 OP:mig  STATUS:               ID:20140816123800     I
 OLDACT:UP  14-08-18 13:34 OP:mig  STATUS:               ID:20140816123800     3
 OLDACT:UP  14-08-16 10:08 OP:mig  STATUS:               ID:20140816123800     3
 OLDACT:UP  14-08-16 09:56 OP:mig  STATUS:               ID:20140816123800     3
 OLDACT:UP  14-08-16 08:54 OP:re   STATUS:               ID:20140816123800     3
 OLDACT:UP  14-08-16 08:52 OP:re   STATUS:               ID:20140816123800     3
 OLDACT:UP  14-08-16 08:46 OP:re   STATUS:               ID:20140816123800     3
 OLDACT:UP  14-08-16 08:19 OP:re   STATUS:               ID:20140816123800     3
 OLDACT:UP  14-08-16 08:19 OP:re   STATUS:               ID:20140816123800     3
 OLDACT:UP  14-08-16 08:18 OP:re   STATUS:               ID:20140816123800     3
 OLDACT:UP  14-08-16 08:16 OP:re   STATUS:               ID:20140816123800     3
 OLDACT:REG 14-08-16 08:15 OP:re   STATUS:               ID:20140816123800     3
 2014-08-16-1238-00S.MAN___155                                                 6
 STAT SP IPHASW D HRMM SECON CODA AMPLIT PERI AZIMU VELO AIN AR TRES W  DIS CAZ7
 SDV  BZ EP       1239 55.27                              43    0.1110  373 241 
 SDV  B1 ES       1240 34.71                              43    0.8310  373 241 
 CUMV EZ EP       1239 55.66                              43   -0.0310  379  91 
 CUMV EN ES       1240 35.57                              43    0.7710  379  91 
 PRGV HZ EP       1239 57.02                              43    0.7710  384 120 
 PRGV HE ES       1240 37.46                              43    1.6810  384 120 
 SOCV HZ EP     C 1240  2.52                              43    0.7110  430 235 
 SOCV HN ES       1240 45.80                              43    0.3610  430 235 
 VIGV HZ EP       1240  4.84                              43    0.9210  447 246 
 CRUV HZ EP       1240  9.12                              43    0.0510  490  88 
 CRUV HN ES       1240 58.18                              43    0.1010  490  88 
 ORIV HZ EP       1240  9.63                              43    0.2310  493 109 
 GUNV HZ EP       1240 13.30                              43    0.8910  518  94 
 GUNV HN ES       1241  3.78                              43   -0.1110  518  94 
 PAYV HZ EP     C 1240 17.05                              43   -0.9510  565 180 
 PAYV HE ES       1241 11.75                              43   -1.8710  565 180 
 GRGR BZ EP       1240 31.74                              43   -0.0710  679  74 
 GRGR B1 ES       1241 37.27                              43   -0.3810  679  74 
 RIOV HZ EP       1240 33.44                              43   -0.5610  697 113 
 RIOV HN ES       1241 41.48                              43    0.0210  697 113 
 FDF  BZ EP     C 1240 50.96                              43   -1.0410  846  56 
 FDF  BN ES       1242 11.79                              43   -1.0010  846  56 
 TURV HZ EP     C 1239  7.03                             101    0.3310 21.6 247 
 TURV HN ES       1239  9.68                             101    0.1310 21.6 247 
 CARV HZ EP     D 1239 16.27                              65   -0.3510 79.8  92 
 CARV HN ES       1239 25.91                              65   -0.9110 79.8  92 
 FUNV HZ EP     D 1239 18.39                              65   -0.3110 93.0  94 
 FUNV HN ES       1239 29.36                              65   -1.0810 93.0  94 
 MAPV HZ EP     C 1239 21.23                              65   -1.1610  117 229 
 MAPV HN ES       1239 36.75                              65   -0.1110  117 229 
 JACV HZ EP     D 1239 27.04                              65    0.5410  142 296 
 BIRV HZ EP     C 1239 28.02                              65   -0.0110  152  92 
 BIRV HN ES       1239 45.90                              65   -0.7710  152  92 
 BAUV HZ EP     C 1239 31.25                              43   -0.4110  180 194 
 BAUV HN ES       1239 51.44                              43   -1.5610  180 194 
 MERV HZ EP       1239 34.77                              43    0.0510  205 133 
 MERV HE ES       1239 58.34                              43    0.0310  205 133 
 HATO BZ EP       1239 38.10                              43    0.2110  232 322 
 HATO BN ES       1240  1.98                              43   -1.8410  232 322 
 SANV HZ EP     D 1239 39.67                              43    1.2410  235 241 
 SANV HN ES       1240  4.22                              43   -0.5510  235 241 
 SIQV HZ EP     D 1239 38.00                              43   -0.4210  236 274 
 CURV HZ EP     D 1239 41.32                              43    0.1010  259 258 
 CURV HN ES       1240  9.25                              43   -0.3710  259 258 
 MONV HZ EP     D 1239 45.42                              43   -0.4610  298 302 
 MONV HN ES       1240 16.57                              43   -1.1610  298 302 
 QARV HZ EP     D 1239 48.49                              43    0.4010  316 264 
 QARV HN ES       1240 21.59                              43    0.0210  316 264 
 DABV HZ EP     D 1239 49.32                              43   -0.2710  329 278 
 DABV HN ES       1240 25.68                              43    1.4910  329 278 
 AUA1 BZ EP       1239 50.99                              43    0.3710  337 311 
 AUA1 BN ES       1240 26.67                              43    0.7010  337 311 
 PCRV HZ EP     C 1239 52.42                              43    1.6510  338  97 
 PCRV HN ES       1240 29.28                              43    3.0310  338  97 
                                                                                
 2014  816 1243 39.0 L  10.470 -67.648  4.7  FUN 10 0.3 3.1WFUN                1
 SPEC AVERAGE  MO 13.7 ST0.363 OM  2.4 f0 1.69 R1.2642 AL 1.90 WI 15.9 MW  3.1 3
 SPEC SD       MO  0.2 ST0.405 OM  0.2 f0 1.45 R0.6798 AL      WI      MW  0.2 3
 GAP=147        0.91       2.4     1.2  2.7  0.1497E+00 -0.3928E+00  0.1245E+01E
 SPEC MERVHH N MO 14.0 ST0.406 OM  2.7 f0 1.28 R1.0406 AL 2.59 WI 12.8 MW  3.3 3
 SPEC MERVHH N T124433 K 0.000 GD  141 VS 3.60 DE 3.00 Q0440.0 QA 0.70 VS 3.60 3
 SPEC MAPVHH N MO 13.5 ST0.027 OM  2.3 f00.775 R1.7187 AL 2.09 WI 14.3 MW  2.9 3
 SPEC MAPVHH N T124411 K 0.000 GD  106 VS 3.60 DE 3.00 Q0440.0 QA 0.70 VS 3.60 3
 SPEC FUNVHH N MO 13.7 ST0.012 OM  2.6 f00.496 R2.6855 AL 1.67 WI 20.8 MW  3.1 3
 SPEC FUNVHH N T1244 4 K 0.000 GD 91.8 VS 3.60 DE 3.00 Q0440.0 QA 0.70 VS 3.60 3
 SPEC TURVHH N MO 13.4 ST  1.3 OM  2.2 f0 5.13 R0.4472 AL 0.41 WI 13.5 MW  2.9 3
 SPEC TURVHH N T124344 K 0.000 GD 21.6 VP 6.20 DE 3.00 Q0440.0 QA 0.70 VS 3.60 3
 SPEC SANVHH N MO 13.8 ST0.500 OM  2.5 f0 1.56 R0.8538 AL 2.78 WI 19.7 MW  3.2 3
 SPEC SANVHH N T124440 K 0.000 GD  152 VS 3.60 DE 3.00 Q0440.0 QA 0.70 VS 3.60 3
 SPEC BIRVHH N MO 13.4 ST0.126 OM  2.1 f0 1.44 R0.9250 AL 1.92 WI 16.0 MW  2.8 3
 SPEC BIRVHH N T124421 K 0.000 GD  122 VS 3.60 DE 3.00 Q0440.0 QA 0.70 VS 3.60 3
 SPEC BAUVHH N MO 13.9 ST0.207 OM  2.6 f0 1.13 R1.1788 AL 1.81 WI 14.2 MW  3.2 3
 SPEC BAUVHH N T124426 K 0.000 GD  131 VS 3.60 DE 3.00 Q0440.0 QA 0.70 VS 3.60 3
 ACTION:UP  14-08-27 09:06 OP:mig  STATUS:               ID:20140816124200     I
 OLDACT:UP  14-08-27 08:57 OP:mig  STATUS:               ID:20140816124200     3
 OLDACT:UP  14-08-16 10:45 OP:re   STATUS:               ID:20140816124200     3
 OLDACT:UP  14-08-16 10:44 OP:re   STATUS:               ID:20140816124200     3
 OLDACT:UP  14-08-16 10:44 OP:re   STATUS:               ID:20140816124200     3
 OLDACT:UP  14-08-16 10:43 OP:re   STATUS:               ID:20140816124200     3
 OLDACT:UP  14-08-16 10:42 OP:re   STATUS:               ID:20140816124200     3
 OLDACT:UP  14-08-16 10:02 OP:re   STATUS:               ID:20140816124200     3
 OLDACT:UP  14-08-16 10:01 OP:re   STATUS:               ID:20140816124200     3
 OLDACT:UP  14-08-16 10:00 OP:re   STATUS:               ID:20140816124200     3
 OLDACT:UP  14-08-16 09:14 OP:re   STATUS:               ID:20140816124200     3
 OLDACT:UP  14-08-16 09:13 OP:re   STATUS:               ID:20140816124200     3
 OLDACT:UP  14-08-16 09:13 OP:re   STATUS:               ID:20140816124200     3
 OLDACT:UP  14-08-16 09:10 OP:re   STATUS:               ID:20140816124200     3
 OLDACT:UP  14-08-16 09:09 OP:re   STATUS:               ID:20140816124200     3
 OLDACT:UP  14-08-16 09:06 OP:re   STATUS:               ID:20140816124200     3
 OLDACT:REG 14-08-16 09:05 OP:re   STATUS:               ID:20140816124200     3
 2014-08-16-1242-00S.MAN___155                                                 6
 STAT SP IPHASW D HRMM SECON CODA AMPLIT PERI AZIMU VELO AIN AR TRES W  DIS CAZ7
 TURV HZ EP       1243 42.85                             103    0.0210 21.1 264 
 TURV HN ES       1243 45.60                             103   -0.0410 21.1 264 
 FUNV HZ EP       1243 54.59                              65   -0.0610 91.7  90 
 FUNV HN ES       1244  5.64                              65   -0.5710 91.7  90 
 MAPV HZ EP       1243 57.67                              65   -0.4010  113 232 
 MAPV HN ES       1244 11.98                              65   -0.1710  113 232 
 JACV HZ EP       1244  3.45                              65    0.1910  146 298 
 JACV HN ES       1244 21.39                              65    0.2010  146 298 
 BIRV HZ EP       1244  4.46                              65    0.4610  151  90 
 BIRV HN ES       1244 22.65                              65    0.1710  151  90 
 BAUV HZ EP       1244  7.25                              43    0.1310  174 194 
 BAUV HN ES       1244 27.39                              43   -0.5210  174 194 
 MERV HZ EP       1244 10.08                              43   -0.1810  200 132 
 MERV HN ES       1244 33.85                              43    0.4810  200 132 
 SANV HZ EP       1244 14.48                              43    0.1310  233 243 
 SANV HN ES       1244 40.91                              43    0.4410  233 243 
 CURV HZ EP       1244 17.50                              43    0.1610  258 259 
 CURV HN ES       1244 46.03                              43    0.3410  258 259 
 MONV HZ EP       1244 22.46                              43   -0.0710  302 303 
 MONV HN ES       1244 54.04                              43   -0.6810  302 303 
                                                                                
 2014  816 1248 30.7 L  10.507 -67.778 14.4  FUN  3 0.2 1.5WFUN                1
 SPEC AVERAGE  MO 11.4 ST0.039 OM  0.4 f0 4.39 R0.3748 AL 1.46 WI  7.2 MW  1.5 3
 SPEC SD       MO  0.6 ST0.025 OM  0.4 f0 2.09 R0.1565 AL      WI      MW  0.4 3
 GAP=323        0.64       9.7     7.5  4.0 -0.5326E+02 -0.2349E+02  0.3232E+02E
 SPEC TURVHH E MO 11.0 ST0.008 OM  0.6 f0 3.56 R0.3742 AL 1.00 WI  8.0 MW  1.3 3
 SPEC TURVHH E T124835 K 0.000 GD 17.1 VS 3.60 DE 3.00 Q0440.0 QA 0.70 VS 3.60 3
 SPEC MAPVHH N MO 11.0 ST0.070 OM -0.2 f0 7.26 R0.1835 AL 1.59 WI  7.2 MW  1.3 3
 SPEC MAPVHH N T1249 0 K 0.000 GD  106 VS 3.60 DE 3.00 Q0440.0 QA 0.70 VS 3.60 3
 SPEC BAUVHH E MO 12.2 ST0.039 OM  0.8 f0 2.35 R0.5668 AL 1.79 WI  6.3 MW  2.1 3
 SPEC BAUVHH E T124917 K 0.000 GD  175 VS 3.60 DE 3.00 Q0440.0 QA 0.70 VS 3.60 3
 ACTION:UP  14-08-27 09:41 OP:mig  STATUS:               ID:20140816124700     I
 OLDACT:UP  14-08-27 09:38 OP:mig  STATUS:               ID:20140816124700     3
 OLDACT:UP  14-08-27 09:33 OP:mig  STATUS:               ID:20140816124700     3
 OLDACT:UP  14-08-16 16:24 OP:re   STATUS:               ID:20140816124700     3
 OLDACT:REG 14-08-16 16:24 OP:re   STATUS:               ID:20140816124700     3
 2014-08-16-1247-00S.MAN___155                                                 6
 STAT SP IPHASW D HRMM SECON CODA AMPLIT PERI AZIMU VELO AIN AR TRES W  DIS CAZ7
 TURV HZ EP       1248 33.23                             145   -0.3410 9.26 227 
 TURV HE ES       1248 35.91                             145    0.2010 9.26 227 
 MAPV HZ EP       1248 48.49                              94    0.3410  106 225 
 MAPV HN ES       1249  0.88                              94   -0.2010  106 225 
 BAUV HZ EP       1248 57.77                              49   -0.0010  175 190 
 BAUV HE ES       1249 17.83                              49    0.0010  175 190 
                                                                                
 2014  816 1306 39.7 L  10.529 -67.835 16.3  FUN  3 0.2 1.3WFUN                1
 SPEC AVERAGE  MO 11.0 ST0.049 OM  0.0 f0 5.76 R0.2469 AL 1.60 WI  6.0 MW  1.3 3
 SPEC SD       MO  0.2 ST0.033 OM  0.3 f0 1.58 R0.0578 AL      WI      MW  0.1 3
 GAP=321        0.55       7.5     5.0  1.9 -0.2532E+02 -0.2869E+01  0.7799E+01E
 SPEC TURVHH E MO 10.8 ST0.011 OM  0.4 f0 4.42 R0.3014 AL 0.91 WI  5.3 MW  1.2 3
 SPEC TURVHH E T13 644 K 0.000 GD 18.5 VS 3.60 DE 3.00 Q0440.0 QA 0.70 VS 3.60 3
 SPEC MAPVHH N MO 11.0 ST0.091 OM -0.2 f0 7.98 R0.1669 AL 2.08 WI  8.4 MW  1.3 3
 SPEC MAPVHH N T13 7 9 K 0.000 GD  104 VS 3.60 DE 3.00 Q0440.0 QA 0.70 VS 3.60 3
 SPEC BAUVHH N MO 11.3 ST0.045 OM -0.1 f0 4.89 R0.2724 AL 1.80 WI  4.4 MW  1.5 3
 SPEC BAUVHH N T13 726 K 0.000 GD  177 VS 3.60 DE 3.00 Q0440.0 QA 0.70 VS 3.60 3
 ACTION:UP  14-08-27 10:01 OP:mig  STATUS:               ID:20140816130501d    I
 OLDACT:UP  14-08-27 09:59 OP:mig  STATUS:               ID:20140816130501d    3
 OLDACT:UP  14-08-16 16:30 OP:rem  STATUS:               ID:20140816130501d    3
 OLDACT:DUP 14-08-16 16:30 OP:rem  STATUS:               ID:20140816130501d    3
 OLDACT:REG 14-08-16 16:29 OP:re   STATUS:               ID:20140816130500     3
 2014-08-16-1305-00S.MAN___155                                                 6
 STAT SP IPHASW D HRMM SECON CODA AMPLIT PERI AZIMU VELO AIN AR TRES W  DIS CAZ7
 TURV HZ EP       13 6 42.58                             150   -0.2510 8.82 183 
 TURV HE ES       13 6 45.28                             150    0.1410 8.82 183 
 MAPV HN ES       13 7  9.47                              95    0.0010  103 221 
 BAUV HZ EP       13 7  7.06                              49    0.2510  177 187 
 BAUV HN ES       13 7 26.71                              49   -0.1410  177 187 
                                                                                
 2014  816 1314 19.7 L  10.595 -67.789 14.9  FUN  3 0.1 1.6WFUN                1
 SPEC AVERAGE  MO 11.5 ST0.359 OM  0.4 f0 8.17 R0.1841 AL 2.38 WI  6.8 MW  1.6 3
 SPEC SD       MO  0.1 ST0.276 OM  0.3 f0 3.04 R0.0577 AL      WI      MW  0.1 3
 GAP=328        0.43       4.3     3.7  1.6 -0.6165E+01 -0.1946E+01  0.8817E+00E
 SPEC TURVHH E MO 11.3 ST0.742 OM  0.8 f0 12.4 R0.1074 AL 2.27 WI  3.6 MW  1.5 3
 SPEC TURVHH E T131425 K 0.000 GD 22.6 VS 3.60 DE 3.00 Q0440.0 QA 0.70 VS 3.60 3
 SPEC MAPVHH N MO 11.6 ST0.235 OM  0.4 f0 6.72 R0.1982 AL 3.53 WI 10.6 MW  1.7 3
 SPEC MAPVHH N T131451 K 0.000 GD  112 VS 3.60 DE 3.00 Q0440.0 QA 0.70 VS 3.60 3
 SPEC BAUVHH N MO 11.5 ST0.100 OM  0.1 f0 5.40 R0.2467 AL 1.35 WI  6.3 MW  1.6 3
 SPEC BAUVHH N T1315 8 K 0.000 GD  185 VS 3.60 DE 3.00 Q0440.0 QA 0.70 VS 3.60 3
 ACTION:UP  14-08-27 10:09 OP:mig  STATUS:               ID:20140816131300     I
 OLDACT:UP  14-08-27 10:09 OP:mig  STATUS:               ID:20140816131300     3
 OLDACT:UP  14-08-16 11:06 OP:re   STATUS:               ID:20140816131300     3
 OLDACT:UP  14-08-16 11:06 OP:re   STATUS:               ID:20140816131300     3
 OLDACT:UP  14-08-16 11:05 OP:re   STATUS:               ID:20140816131300     3
 OLDACT:UP  14-08-16 09:19 OP:re   STATUS:               ID:20140816131300     3
 OLDACT:UP  14-08-16 09:17 OP:re   STATUS:               ID:20140816131300     3
 OLDACT:REG 14-08-16 09:16 OP:re   STATUS:               ID:20140816131300     3
 2014-08-16-1313-00S.MAN___155                                                 6
 STAT SP IPHASW D HRMM SECON CODA AMPLIT PERI AZIMU VELO AIN AR TRES W  DIS CAZ7
 TURV HZ EP       1314 23.68                             128    0.2010 17.0 199 
 TURV HE ES       1314 26.19                             128   -0.1210 17.0 199 
 MAPV HZ EP       1314 37.96                              94   -0.1810  112 221 
 MAPV HN ES       1314 51.91                              94    0.1010  112 221 
 BAUV HZ EP       1314 47.81                              49   -0.0310  185 189 
 BAUV HN ES       1315  8.70                              49    0.0110  185 189 
                                                                                
