 2014  728 1832 10.3 L  10.794 -67.746  2.2  FUN  5 0.7 2.0WFUN                1
 SPEC AVERAGE  MO 12.1 ST  1.5 OM  0.9 f0 7.87 R0.1935 AL 2.41 WI 23.2 MW  2.0 3
 SPEC SD       MO  0.2 ST  1.2 OM  0.2 f0 3.03 R0.0661 AL      WI      MW  0.2 3
 GAP=212        1.91       8.7     5.7  8.3 -0.1752E+02  0.6299E+00 -0.3388E+02E
 SPEC TURVHH N MO 11.9 ST  3.0 OM  1.1 f0 13.0 R0.1025 AL 2.45 WI 13.1 MW  1.9 3
 SPEC TURVHH N T183220 K 0.000 GD 39.5 VS 3.60 DE 3.00 Q0440.0 QA 0.70 VS 3.60 3
 SPEC MAPVHH N MO 11.9 ST0.410 OM  0.7 f0 6.39 R0.2085 AL 1.70 WI 23.7 MW  1.9 3
 SPEC MAPVHH N T183247 K 0.000 GD  114 VS 3.60 DE 3.00 Q0440.0 QA 0.70 VS 3.60 3
 SPEC CURVHH N MO 11.9 ST0.133 OM  0.5 f0 4.58 R0.2908 AL 1.67 WI 22.3 MW  1.9 3
 SPEC CURVHH N T183315 K 0.000 GD  160 VS 3.60 DE 3.00 Q0440.0 QA 0.70 VS 3.60 3
 SPEC BIRVHH N MO 12.3 ST  3.0 OM  1.0 f0 9.50 R0.1402 AL 4.60 WI 25.1 MW  2.1 3
 SPEC BIRVHH N T183257 K 0.000 GD  128 VS 3.60 DE 3.00 Q0440.0 QA 0.70 VS 3.60 3
 SPEC BAUVHH N MO 12.4 ST  1.0 OM  1.1 f0 5.90 R0.2258 AL 1.63 WI 31.6 MW  2.2 3
 SPEC BAUVHH N T1833 6 K 0.000 GD  143 VS 3.60 DE 3.00 Q0440.0 QA 0.70 VS 3.60 3
 ACTION:UP  14-07-29 09:20 OP:mav  STATUS:               ID:20140728183000     I
 OLDACT:UP  14-07-28 14:27 OP:mav  STATUS:               ID:20140728183000     3
 OLDACT:REG 14-07-28 14:26 OP:mav  STATUS:               ID:20140728183000     3
 2014-07-28-1830-00S.MAN___155                                                 6
 STAT SP IPHASW D HRMM SECON CODA AMPLIT PERI AZIMU VELO AIN AR TRES W  DIS CAZ7
 TURV HZ EP       1832 17.51                              93    0.2910 39.4 195 
 TURV HN ES       1832 21.52                              93   -0.8310 39.4 195 
 MAPV HZ EP       1832 32.46                              65    0.0110  132 216 
 MAPV HN ES       1832 49.09                              65    0.2510  132 216 
 BIRV HZ EP       1832 37.21                              43   -0.4210  165 102 
 BIRV HN ES       1832 57.56                              43   -0.3010  165 102 
 BAUV HZ EP       1832 44.60                              43    1.9410  207 189 
 BAUV HN ES       1833  6.51                              43   -0.1010  207 189 
 CURV HZ EP       1832 48.42                              43   -0.3810  258 251 
 CURV HN ES       1833 16.85                              43   -0.4510  258 251 
                                                                                
 2014  728 2325 27.7 L  10.160 -68.035  5.0F FUN  4 0.7 1.8WFUN                1
 SPEC AVERAGE  MO 11.8 ST0.553 OM  0.6 f0 7.28 R0.1883 AL 2.74 WI 18.5 MW  1.8 3
 SPEC SD       MO  0.3 ST0.288 OM  0.4 f0 1.24 R0.0317 AL      WI      MW  0.2 3
 GAP=108        1.73       4.3     5.1  8.4 -0.4566E+01  0.1198E+02  0.9072E+01E
 SPEC TURVHH N MO 11.7 ST0.565 OM  0.9 f0 8.78 R0.1517 AL 2.11 WI 21.6 MW  1.7 3
 SPEC TURVHH N T232537 K 0.000 GD 38.5 VS 3.60 DE 3.00 Q0440.0 QA 0.70 VS 3.60 3
 SPEC SIQVHH E MO 11.3 ST0.085 OM -0.0 f0 6.03 R0.2209 AL 2.53 WI 16.3 MW  1.5 3
 SPEC SIQVHH E T232622 K 0.000 GD  142 VS 3.60 DE 3.00 Q0440.0 QA 0.70 VS 3.60 3
 SPEC BIRVHH N MO 11.9 ST0.845 OM  0.6 f0 8.22 R0.1620 AL 4.29 WI 14.1 MW  1.9 3
 SPEC BIRVHH N T232622 K 0.000 GD  140 VS 3.60 DE 3.00 Q0440.0 QA 0.70 VS 3.60 3
 SPEC BAUVHH E MO 12.2 ST0.716 OM  1.0 f0 6.09 R0.2187 AL 2.02 WI 22.0 MW  2.1 3
 SPEC BAUVHH E T2326 3 K 0.000 GD  116 VS 3.60 DE 3.00 Q0440.0 QA 0.70 VS 3.60 3
 ACTION:UP  14-07-28 23:30 OP:they STATUS:               ID:20140728232300     I
 OLDACT:UP  14-07-28 23:29 OP:they STATUS:               ID:20140728232300     3
 OLDACT:REG 14-07-28 19:22 OP:they STATUS:               ID:20140728232300     3
 2014-07-28-2323-00S.MAN___155                                                 6
 STAT SP IPHASW D HRMM SECON CODA AMPLIT PERI AZIMU VELO AIN AR TRES W  DIS CAZ7
 TURV HZ EP       2325 34.10                              90   -0.3710 38.5  34 
 TURV HN ES       2325 38.56                              90   -0.9010 38.5  34 
 BAUV HZ EP       2325 49.72                              65   -0.7110  135 180 
 BAUV HE ES       2326  6.89                              65   -0.3510  135 180 
 BIRV HZ EP       2326  0.27                              43    1.1910  196  80 
 BIRV HN ES       2326 22.94                              43    0.6510  196  80 
 SIQV HZ EP       2325 59.91                              43    0.1910  202 286 
 SIQV HE ES       2326 23.71                              43    0.3110  202 286 
                                                                                
 2014  731 0657  5.7 L  10.702 -67.575  5.0F FUN  3 0.3 1.8WFUN                1
 SPEC AVERAGE  MO 11.8 ST0.034 OM  0.7 f0 3.01 R0.4609 AL 2.83 WI 10.7 MW  1.8 3
 SPEC SD       MO  0.2 ST0.014 OM  0.1 f00.584 R0.0932 AL      WI      MW  0.2 3
 GAP=234        0.64       7.1     3.0  0.0 -0.1800E+02  0.0000E+00  0.0000E+00E
 SPEC TURVHH N MO 11.6 ST0.019 OM  0.8 f0 3.03 R0.4396 AL 2.14 WI 11.9 MW  1.7 3
 SPEC TURVHH N T 65717 K 0.000 GD 40.5 VS 3.60 DE 3.00 Q0440.0 QA 0.70 VS 3.60 3
 SPEC BIRVHH N MO 11.7 ST0.053 OM  0.5 f0 3.71 R0.3590 AL 3.71 WI  8.8 MW  1.8 3
 SPEC BIRVHH N T 65747 K 0.000 GD  120 VS 3.60 DE 3.00 Q0440.0 QA 0.70 VS 3.60 3
 SPEC BAUVHH N MO 12.1 ST0.029 OM  0.8 f0 2.28 R0.5842 AL 2.64 WI 11.4 MW  2.0 3
 SPEC BAUVHH N T 658 0 K 0.000 GD  141 VS 3.60 DE 3.00 Q0440.0 QA 0.70 VS 3.60 3
 ACTION:UP  14-07-31 05:21 OP:rap  STATUS:               ID:20140731065500     I
 OLDACT:UP  14-07-31 05:20 OP:rap  STATUS:               ID:20140731065500     3
 OLDACT:REG 14-07-31 05:16 OP:rap  STATUS:               ID:20140731065500     3
 2014-07-31-0655-00S.MAN___155                                                 6
 STAT SP IPHASW D HRMM SECON CODA AMPLIT PERI AZIMU VELO AIN AR TRES W  DIS CAZ7
 TURV HZ EP        657 13.08                              97    0.2510 40.2 226 
 TURV HN ES        657 17.63                              97   -0.4510 40.2 226 
 BIRV HZ EP        657 29.45                              65   -0.2910  145 100 
 BIRV HN ES        657 47.51                              65   -0.0110  145 100 
 BAUV HZ EP        657 37.32                              43    0.3310  201 195 
 BAUV HN ES        658  0.31                              43    0.1710  201 195 
                                                                                
 2014  8 2 0749 37.9 L  10.134 -67.692  5.0F FUN  5 0.7 1.9WFUN                1
 SPEC AVERAGE  MO 11.9 ST0.296 OM  0.5 f0 5.56 R0.2814 AL 2.14 WI 20.0 MW  1.9 3
 SPEC SD       MO  0.4 ST0.280 OM  0.4 f0 1.41 R0.0552 AL      WI      MW  0.3 3
 GAP=221        1.51       3.4     9.0  0.0  0.6249E+01  0.0000E+00  0.0000E+00E
 SPEC TURVHH N MO 12.5 ST0.481 OM  1.0 f0 7.69 R0.2983 AL 1.02 WI 19.4 MW  2.3 3
 SPEC TURVHH N T 74946 K 0.000 GD 38.7 VP 6.20 DE 3.00 Q0440.0 QA 0.70 VS 3.60 3
 SPEC SIQVHH N MO 11.6 ST0.031 OM  0.2 f0 3.61 R0.3690 AL 2.42 WI 20.3 MW  1.6 3
 SPEC SIQVHH N T 75041 K 0.000 GD  154 VS 3.60 DE 3.00 Q0440.0 QA 0.70 VS 3.60 3
 SPEC SANVHH N MO 11.9 ST0.146 OM  0.6 f0 4.51 R0.2953 AL 2.64 WI 24.7 MW  1.9 3
 SPEC SANVHH N T 75032 K 0.000 GD  146 VS 3.60 DE 3.00 Q0440.0 QA 0.70 VS 3.60 3
 SPEC CURVHH N MO 11.3 ST0.067 OM -0.1 f0 5.81 R0.2293 AL 2.97 WI 25.1 MW  1.5 3
 SPEC CURVHH N T 75043 K 0.000 GD  157 VS 3.60 DE 3.00 Q0440.0 QA 0.70 VS 3.60 3
 SPEC BAUVHH N MO 12.2 ST0.758 OM  1.0 f0 6.19 R0.2152 AL 1.63 WI 10.6 MW  2.1 3
 SPEC BAUVHH N T 75016 K 0.000 GD  117 VS 3.60 DE 3.00 Q0440.0 QA 0.70 VS 3.60 3
 ACTION:UP  14-08-02 05:26 OP:they STATUS:               ID:20140802074800     I
 OLDACT:UP  14-08-02 05:25 OP:they STATUS:               ID:20140802074800     3
 OLDACT:REG 14-08-02 04:49 OP:they STATUS:               ID:20140802074800     3
 2014-08-02-0748-00S.MAN___155                                                 6
 STAT SP IPHASW D HRMM SECON CODA AMPLIT PERI AZIMU VELO AIN AR TRES W  DIS CAZ7
 TURV HZ EP        749 44.79                              97    0.1410 38.4 335 
 TURV HN ES        749 48.60                              97   -1.0810 38.4 335 
 BAUV HZ EP        750  0.61                              65    0.0010  137 196 
 BAUV HN ES        750 16.67                              65   -0.7810  137 196 
 SANV HZ EP        750 11.57                              43    0.7510  214 251 
 SANV HN ES        750 34.23                              43   -0.9910  214 251 
 SIQV HZ EP        750 14.56                              43    0.8710  239 284 
 SIQV HN ES        750 40.47                              43    0.2710  239 284 
 CURV HZ EP        750 15.34                              43    0.3510  249 267 
 CURV HN ES        750 42.96                              43    0.4810  249 267 
                                                                                
 2014  8 3 0802  2.0 L  10.165 -68.006  5.0F FUN  3 0.4 1.8WFUN                1
 SPEC AVERAGE  MO 11.8 ST0.192 OM  0.7 f0 5.63 R0.2413 AL 2.37 WI 20.1 MW  1.8 3
 SPEC SD       MO  0.2 ST0.058 OM  0.1 f00.741 R0.0350 AL      WI      MW  0.1 3
 GAP=208        0.88       3.0     7.0  0.0 -0.1562E+02  0.0000E+00  0.0000E+00E
 SPEC TURVHH N MO 11.5 ST0.150 OM  0.8 f0 6.19 R0.2152 AL 2.18 WI 20.3 MW  1.6 3
 SPEC TURVHH N T 8 210 K 0.000 GD 36.6 VS 3.60 DE 3.00 Q0440.0 QA 0.70 VS 3.60 3
 SPEC BIRVHH N MO 11.8 ST0.273 OM  0.5 f0 6.11 R0.2180 AL 2.86 WI 17.6 MW  1.8 3
 SPEC BIRVHH N T 8 253 K 0.000 GD  138 VS 3.60 DE 3.00 Q0440.0 QA 0.70 VS 3.60 3
 SPEC BAUVHH N MO 11.9 ST0.153 OM  0.7 f0 4.58 R0.2908 AL 2.07 WI 22.5 MW  1.9 3
 SPEC BAUVHH N T 8 241 K 0.000 GD  116 VS 3.60 DE 3.00 Q0440.0 QA 0.70 VS 3.60 3
 ACTION:UP  14-08-03 06:09 OP:mu   STATUS:               ID:20140803080100     I
 OLDACT:UP  14-08-03 06:00 OP:mu   STATUS:               ID:20140803080100     3
 OLDACT:UP  14-08-03 05:58 OP:mu   STATUS:               ID:20140803080100     3
 OLDACT:UP  14-08-03 05:57 OP:mu   STATUS:               ID:20140803080100     3
 OLDACT:REG 14-08-03 05:57 OP:mu   STATUS:               ID:20140803080100     3
 2014-08-03-0801-00S.MAN___155                                                 6
 STAT SP IPHASW D HRMM SECON CODA AMPLIT PERI AZIMU VELO AIN AR TRES W  DIS CAZ7
 TURV HZ EP        8 2  8.62                              98    0.2310 36.3  30 
 TURV HN ES        8 2 12.63                              98   -0.5310 36.3  30 
 BAUV HZ EP        8 2 24.71                              65    0.3210  135 182 
 BAUV HN ES        8 2 40.47                              65   -0.5210  135 182 
 BIRV HZ EP        8 2 32.84                              43    0.5410  193  80 
 BIRV HN ES        8 2 54.73                              43   -0.0310  193  80 
                                                                                
 2014  8 3 1013 32.8 L  10.169 -68.037  5.0F FUN  3 0.5 1.9WFUN                1
 SPEC AVERAGE  MO 12.0 ST0.268 OM  0.9 f0 5.10 R0.2718 AL 2.26 WI 24.2 MW  1.9 3
 SPEC SD       MO  0.3 ST0.148 OM  0.2 f0 1.07 R0.0507 AL      WI      MW  0.2 3
 GAP=215        0.99       3.8     8.6  0.0 -0.2596E+02  0.0000E+00  0.0000E+00E
 SPEC TURVHH N MO 11.6 ST0.077 OM  0.9 f0 4.54 R0.2934 AL 1.92 WI 14.5 MW  1.7 3
 SPEC TURVHH N T101345 K 0.000 GD 38.1 VS 3.60 DE 3.00 Q0440.0 QA 0.70 VS 3.60 3
 SPEC BIRVHH N MO 11.9 ST0.438 OM  0.6 f0 6.60 R0.2018 AL 2.80 WI 20.7 MW  1.9 3
 SPEC BIRVHH N T101423 K 0.000 GD  140 VS 3.60 DE 3.00 Q0440.0 QA 0.70 VS 3.60 3
 SPEC BAUVHH N MO 12.3 ST0.288 OM  1.1 f0 4.16 R0.3202 AL 2.06 WI 37.4 MW  2.2 3
 SPEC BAUVHH N T101411 K 0.000 GD  116 VS 3.60 DE 3.00 Q0440.0 QA 0.70 VS 3.60 3
 ACTION:UP  14-08-03 06:08 OP:mu   STATUS:               ID:20140803101200     I
 OLDACT:UP  14-08-03 06:08 OP:mu   STATUS:               ID:20140803101200     3
 OLDACT:UP  14-08-03 06:07 OP:mu   STATUS:               ID:20140803101200     3
 OLDACT:UP  14-08-03 06:06 OP:mu   STATUS:               ID:20140803101200     3
 OLDACT:REG 14-08-03 06:06 OP:mu   STATUS:               ID:20140803101200     3
 2014-08-03-1012-00S.MAN___155                                                 6
 STAT SP IPHASW D HRMM SECON CODA AMPLIT PERI AZIMU VELO AIN AR TRES W  DIS CAZ7
 TURV HZ EP     C 1013 39.84                              98    0.3710 37.8  35 
 TURV HN ES       1013 43.90                              98   -0.5210 37.8  35 
 BAUV HZ EP       1013 55.83                              65    0.5510  136 180 
 BAUV HN ES       1014 11.37                              65   -0.5610  136 180 
 BIRV HZ EP       1014  3.26                              43   -0.2610  197  80 
 BIRV HN ES       1014 26.68                              43    0.4110  197  80 
                                                                                
 2014  8 3 1324 53.4 L  10.601 -68.450  5.0F FUN  3 0.6 1.8WFUN                1
 SPEC AVERAGE  MO 11.7 ST0.081 OM  0.6 f0 4.31 R0.3183 AL 2.31 WI  9.8 MW  1.8 3
 SPEC SD       MO  0.1 ST0.027 OM  0.1 f00.779 R0.0511 AL      WI      MW  0.1 3
 GAP=283        1.19       8.9     7.4  0.0 -0.4809E+02  0.0000E+00  0.0000E+00E
 SPEC TURVHH N MO 11.6 ST0.119 OM  0.6 f0 5.41 R0.2462 AL 2.39 WI 11.4 MW  1.7 3
 SPEC TURVHH N T132514 K 0.000 GD 69.1 VS 3.60 DE 3.00 Q0440.0 QA 0.70 VS 3.60 3
 SPEC MAPVHH N MO 11.8 ST0.064 OM  0.7 f0 3.81 R0.3496 AL 2.53 WI 10.6 MW  1.8 3
 SPEC MAPVHH N T132517 K 0.000 GD 85.2 VS 3.60 DE 3.00 Q0440.0 QA 0.70 VS 3.60 3
 SPEC BAUVHH N MO 11.8 ST0.061 OM  0.5 f0 3.71 R0.3590 AL 2.02 WI  7.5 MW  1.8 3
 SPEC BAUVHH N T132546 K 0.000 GD  137 VS 3.60 DE 3.00 Q0440.0 QA 0.70 VS 3.60 3
 ACTION:UP  14-08-03 09:47 OP:rap  STATUS:               ID:20140803132300     I
 OLDACT:UP  14-08-03 09:46 OP:rap  STATUS:               ID:20140803132300     3
 OLDACT:REG 14-08-03 09:17 OP:rap  STATUS:               ID:20140803132300     3
 2014-08-03-1323-00S.MAN___155                                                 6
 STAT SP IPHASW D HRMM SECON CODA AMPLIT PERI AZIMU VELO AIN AR TRES W  DIS CAZ7
 TURV HZ EP       1325  4.64                              65   -0.6310 68.9 104 
 TURV HN ES       1325 14.23                              65    0.1510 68.9 104 
 MAPV HZ EP       1325  7.85                              65   -0.0210 85.1 181 
 MAPV HN ES       1325 17.87                              65   -0.7410 85.1 181 
 BAUV HZ EP       1325 23.48                              43    0.3510  189 166 
 BAUV HN ES       1325 46.06                              43    0.8910  189 166 
                                                                                
 2014  8 3 1614 58.0 L  10.155 -67.961  5.0F FUN  4 0.5 1.9WFUN                1
 SPEC AVERAGE  MO 12.0 ST0.046 OM  0.9 f0 2.52 R0.5787 AL 2.32 WI 10.5 MW  1.9 3
 SPEC SD       MO  0.1 ST0.037 OM  0.2 f00.709 R0.1803 AL      WI      MW  0.1 3
 GAP=145        1.15       2.9     3.8  0.0 -0.6702E+01  0.0000E+00  0.0000E+00E
 SPEC TURVHH N MO 12.0 ST0.020 OM  1.3 f0 2.19 R0.6082 AL 1.89 WI 12.8 MW  2.0 3
 SPEC TURVHH N T1615 7 K 0.000 GD 35.6 VS 3.60 DE 3.00 Q0440.0 QA 0.70 VS 3.60 3
 SPEC MAPVHH N MO 11.8 ST0.004 OM  0.8 f0 1.55 R0.8594 AL 2.54 WI  7.9 MW  1.8 3
 SPEC MAPVHH N T161519 K 0.000 GD 65.4 VS 3.60 DE 3.00 Q0440.0 QA 0.70 VS 3.60 3
 SPEC BIRVHH N MO 12.1 ST0.058 OM  0.8 f0 2.91 R0.4577 AL 3.29 WI 11.0 MW  2.0 3
 SPEC BIRVHH N T161550 K 0.000 GD  137 VS 3.60 DE 3.00 Q0440.0 QA 0.70 VS 3.60 3
 SPEC BAUVHH N MO 12.1 ST0.100 OM  0.9 f0 3.42 R0.3895 AL 1.55 WI 10.1 MW  2.0 3
 SPEC BAUVHH N T161535 K 0.000 GD  115 VS 3.60 DE 3.00 Q0440.0 QA 0.70 VS 3.60 3
 ACTION:UP  14-08-03 11:57 OP:rap  STATUS:               ID:20140803161300     I
 OLDACT:UP  14-08-03 11:56 OP:rap  STATUS:               ID:20140803161300     3
 OLDACT:REG 14-08-03 11:55 OP:rap  STATUS:               ID:20140803161300     3
 2014-08-03-1613-00S.MAN___155                                                 6
 STAT SP IPHASW D HRMM SECON CODA AMPLIT PERI AZIMU VELO AIN AR TRES W  DIS CAZ7
 TURV HZ IP     C 1615  4.16                              98   -0.1210 35.2  22 
 TURV HN ES       1615  8.24                              98   -0.6610 35.2  22 
 MAPV HZ EP       1615  9.42                              65    0.0310 65.2 237 
 MAPV HN ES       1615 18.33                              65    0.5410 65.2 237 
 BAUV HZ EP       1615 20.25                              65   -0.0910  134 184 
 BAUV HN ES       1615 35.99                              65   -0.8510  134 184 
 BIRV HZ EP       1615 28.33                              43    0.5010  189  79 
 BIRV HN ES       1615 50.53                              43    0.6610  189  79 
                                                                                
 2014  811 1905  1.3 L  10.379 -67.469 19.1  FUN  3 0.6 1.5WFUN                1
 SPEC AVERAGE  MO 11.4 ST0.100 OM  0.2 f0 5.74 R0.2371 AL 2.73 WI 11.7 MW  1.5 3
 SPEC SD       MO  0.1 ST0.050 OM  0.2 f00.884 R0.0337 AL      WI      MW  0.1 3
 GAP=281        1.53      23.3    13.1 16.0  0.1569E+03  0.4954E+02  0.3341E+03E
 SPEC TURVHH N MO 11.2 ST0.037 OM  0.4 f0 4.92 R0.2707 AL 2.12 WI 13.2 MW  1.4 3
 SPEC TURVHH N T19 514 K 0.000 GD 45.5 VS 3.60 DE 3.00 Q0440.0 QA 0.70 VS 3.60 3
 SPEC MAPVHH N MO 11.6 ST0.104 OM  0.3 f0 5.34 R0.2494 AL 3.33 WI 12.3 MW  1.7 3
 SPEC MAPVHH N T19 537 K 0.000 GD  125 VS 3.60 DE 3.00 Q0440.0 QA 0.70 VS 3.60 3
 SPEC BAUVHH N MO 11.4 ST0.159 OM  0.0 f0 6.97 R0.1911 AL 2.75 WI  9.7 MW  1.5 3
 SPEC BAUVHH N T19 546 K 0.000 GD  172 VS 3.60 DE 3.00 Q0440.0 QA 0.70 VS 3.60 3
 ACTION:UP  14-08-11 15:05 OP:rap  STATUS:               ID:20140811190300     I
 OLDACT:UP  14-08-11 15:04 OP:rap  STATUS:               ID:20140811190300     3
 OLDACT:UP  14-08-11 15:01 OP:rap  STATUS:               ID:20140811190300     3
 OLDACT:REG 14-08-11 15:00 OP:rap  STATUS:               ID:20140811190300     3
 2014-08-11-1903-00S.MAN___155                                                 6
 STAT SP IPHASW D HRMM SECON CODA AMPLIT PERI AZIMU VELO AIN AR TRES W  DIS CAZ7
 TURV HZ EP       19 5  8.46                             111   -0.3610 41.3 281 
 TURV HN ES       19 5 14.04                             111   -0.3610 41.3 281 
 MAPV HZ EP       19 5 22.62                              49    0.8810  124 241 
 MAPV HN ES       19 5 37.47                              49    0.5710  124 241 
 BAUV HZ EP       19 5 27.48                              49    0.1610  171 202 
 BAUV HN ES       19 5 45.72                              49   -0.8910  171 202 
                                                                                
