 2014  722 0926 22.3 L  10.717 -67.567  1.9  FUN  8 0.4 2.1WFUN                1
 SPEC AVERAGE  MO 12.3 ST0.871 OM  1.1 f0 5.12 R0.2670 AL 2.75 WI 20.5 MW  2.1 3
 SPEC SD       MO  0.4 ST  1.1 OM  0.4 f00.865 R0.0405 AL      WI      MW  0.2 3
 GAP=163        1.18       3.9     1.8  3.9  0.1845E+00  0.1050E+01 -0.3482E+01E
 SPEC TURVHH N MO 12.4 ST0.739 OM  1.6 f0 5.45 R0.2444 AL 1.48 WI 20.7 MW  2.2 3
 SPEC TURVHH N T 92635 K 0.000 GD 42.0 VS 3.60 DE 3.00 Q0440.0 QA 0.70 VS 3.60 3
 SPEC MONVHH N MO 12.0 ST0.228 OM  0.6 f0 4.96 R0.2685 AL 2.12 WI 21.1 MW  1.9 3
 SPEC MONVHH N T 92735 K 0.000 GD  172 VS 3.60 DE 3.00 Q0440.0 QA 0.70 VS 3.60 3
 SPEC MERVHH N MO 12.7 ST0.759 OM  1.4 f0 4.23 R0.3149 AL 2.93 WI 25.1 MW  2.4 3
 SPEC MERVHH N T 92720 K 0.000 GD  146 VS 3.60 DE 3.00 Q0440.0 QA 0.70 VS 3.60 3
 SPEC FUNVHH N MO 12.5 ST0.633 OM  1.4 f0 4.73 R0.2816 AL 2.82 WI 16.3 MW  2.3 3
 SPEC FUNVHH N T 92647 K 0.000 GD 87.3 VS 3.60 DE 3.00 Q0440.0 QA 0.70 VS 3.60 3
 SPEC CURVHH N MO 11.8 ST0.172 OM  0.4 f0 5.34 R0.2494 AL 3.67 WI 16.7 MW  1.8 3
 SPEC CURVHH N T 92731 K 0.000 GD  165 VS 3.60 DE 3.00 Q0440.0 QA 0.70 VS 3.60 3
 SPEC CARVHH N MO 11.9 ST0.118 OM  0.9 f0 4.19 R0.3179 AL 2.23 WI 18.9 MW  1.9 3
 SPEC CARVHH N T 92646 K 0.000 GD 73.8 VS 3.60 DE 3.00 Q0440.0 QA 0.70 VS 3.60 3
 SPEC BIRVHH N MO 12.7 ST  3.4 OM  1.5 f0 6.92 R0.1925 AL 4.00 WI 24.7 MW  2.4 3
 SPEC BIRVHH N T 927 3 K 0.000 GD  120 VS 3.60 DE 3.00 Q0440.0 QA 0.70 VS 3.60 3
 ACTION:UP  14-07-22 06:33 OP:mu   STATUS:               ID:20140722092600     I
 OLDACT:UP  14-07-22 06:32 OP:mu   STATUS:               ID:20140722092600     3
 OLDACT:UP  14-07-22 06:30 OP:mu   STATUS:               ID:20140722092600     3
 OLDACT:UP  14-07-22 06:30 OP:mu   STATUS:               ID:20140722092600     3
 OLDACT:REE 14-07-22 06:30 OP:mu   STATUS:               ID:20140722092600     3
 OLDACT:REG 14-07-22 06:27 OP:mu   STATUS:               ID:20140722092600     3
 2014-07-22-0926-00S.MAN___155                                                 6
 STAT SP IPHASW D HRMM SECON CODA AMPLIT PERI AZIMU VELO AIN AR TRES W  DIS CAZ7
 TURV HZ EP        926 29.90                              93    0.2710 42.0 225 
 TURV HN ES        926 34.51                              93   -0.5810 42.0 225 
 CARV HN ES        926 44.69                              92   -0.1010 73.8 109 
 FUNV HZ EP        926 37.13                              65   -0.2510 87.3 108 
 FUNV HN ES        926 47.79                              65   -0.7810 87.3 108 
 BIRV HZ EP        926 47.01                              65    0.5910  145 101 
 BIRV HN ES        927  4.18                              65   -0.1210  145 101 
 BAUV HZ EP        926 54.33                              43    0.1910  203 195 
 BAUV HN ES        927 17.68                              43   -0.0610  203 195 
 MERV HZ EP        926 55.68                              43    0.2310  214 139 
 MERV HN ES        927 20.47                              43    0.4510  214 139 
 CURV HZ EP        927  3.54                              43    0.8210  273 254 
 CURV HN ES        927 32.48                              43   -0.1910  273 254 
 MONV HZ EP        927  5.49                              43    0.1510  296 298 
 MONV HN ES        927 36.62                              43   -0.6110  296 298 
                                                                                
 2014  722 1221 56.4 L  10.180 -67.935  5.0F FUN  4 0.6 1.3WFUN                1
 SPEC AVERAGE  MO 11.0 ST0.418 OM -0.0 f0 11.5 R0.1333 AL 2.18 WI 17.9 MW  1.3 3
 SPEC SD       MO  0.1 ST0.372 OM  0.2 f0 4.25 R0.0465 AL      WI      MW  0.1 3
 GAP=143        1.39       3.5     4.6  0.0 -0.9391E+01  0.0000E+00  0.0000E+00E
 SPEC TURVHH N MO 10.9 ST0.051 OM  0.2 f0 7.19 R0.1853 AL 1.31 WI 12.1 MW  1.2 3
 SPEC TURVHH N T1222 4 K 0.000 GD 32.0 VS 3.60 DE 3.00 Q0440.0 QA 0.70 VS 3.60 3
 SPEC MAPVHH N MO 11.2 ST0.138 OM  0.2 f0 7.73 R0.1723 AL 1.66 WI 24.0 MW  1.4 3
 SPEC MAPVHH N T122216 K 0.000 GD 69.2 VS 3.60 DE 3.00 Q0440.0 QA 0.70 VS 3.60 3
 SPEC BIRVHH N MO 11.0 ST0.997 OM -0.3 f0 17.5 R0.0761 AL 2.56 WI 19.1 MW  1.3 3
 SPEC BIRVHH N T122245 K 0.000 GD  136 VS 3.60 DE 3.00 Q0440.0 QA 0.70 VS 3.60 3
 SPEC BAUVHH N MO 11.0 ST0.485 OM -0.2 f0 13.4 R0.0994 AL 3.21 WI 16.5 MW  1.3 3
 SPEC BAUVHH N T122234 K 0.000 GD  117 VS 3.60 DE 3.00 Q0440.0 QA 0.70 VS 3.60 3
 ACTION:UP  14-07-22 13:53 OP:mav  STATUS:               ID:20140722122000     I
 OLDACT:UP  14-07-22 13:52 OP:mav  STATUS:               ID:20140722122000     3
 OLDACT:UP  14-07-22 13:52 OP:mav  STATUS:               ID:20140722122000     3
 OLDACT:REG 14-07-22 13:50 OP:mav  STATUS:               ID:20140722122000     3
 2014-07-22-1220-00S.MAN___155                                                 6
 STAT SP IPHASW D HRMM SECON CODA AMPLIT PERI AZIMU VELO AIN AR TRES W  DIS CAZ7
 TURV HZ EP       1222  1.55                              99   -0.5010 31.6  19 
 TURV HN ES       1222  5.67                              99   -0.5410 31.6  19 
 MAPV HZ EP       1222  9.18                              65    0.8010 69.0 236 
 MAPV HN ES       1222 17.40                              65    0.1810 69.0 236 
 BAUV HZ EP       1222 18.63                              65   -0.5610  137 185 
 BAUV HN ES       1222 35.27                              65   -0.7610  137 185 
 BIRV HZ EP       1222 26.78                              43    0.9510  185  80 
 BIRV HN ES       1222 48.01                              43    0.4310  185  80 
                                                                                
 2014  722 1315 59.4 L  10.155 -67.928  5.0F FUN  4 0.6 1.5WFUN                1
 SPEC AVERAGE  MO 11.3 ST0.273 OM  0.3 f0 8.67 R0.1619 AL 1.36 WI 18.3 MW  1.5 3
 SPEC SD       MO  0.2 ST0.127 OM  0.1 f0 2.23 R0.0328 AL      WI      MW  0.1 3
 GAP=138        1.24       3.0     4.0  0.0 -0.6599E+01  0.0000E+00  0.0000E+00E
 SPEC TURVHH N MO 11.1 ST0.460 OM  0.4 f0 12.5 R0.1066 AL 1.23 WI 12.8 MW  1.3 3
 SPEC TURVHH N T1316 8 K 0.000 GD 34.4 VS 3.60 DE 3.00 Q0440.0 QA 0.70 VS 3.60 3
 SPEC MAPVHH N MO 11.2 ST0.108 OM  0.2 f0 7.14 R0.1866 AL 1.30 WI 31.8 MW  1.4 3
 SPEC MAPVHH N T131620 K 0.000 GD 68.4 VS 3.60 DE 3.00 Q0440.0 QA 0.70 VS 3.60 3
 SPEC BIRVHH N MO 11.5 ST0.290 OM  0.2 f0 7.90 R0.1686 AL 1.60 WI 19.2 MW  1.6 3
 SPEC BIRVHH N T131650 K 0.000 GD  136 VS 3.60 DE 3.00 Q0440.0 QA 0.70 VS 3.60 3
 SPEC BAUVHH N MO 11.5 ST0.232 OM  0.3 f0 7.16 R0.1860 AL 1.30 WI  9.3 MW  1.6 3
 SPEC BAUVHH N T131637 K 0.000 GD  116 VS 3.60 DE 3.00 Q0440.0 QA 0.70 VS 3.60 3
 ACTION:UP  14-07-22 13:49 OP:mav  STATUS:               ID:20140722131400     I
 OLDACT:UP  14-07-22 13:49 OP:mav  STATUS:               ID:20140722131400     3
 OLDACT:UP  14-07-22 13:48 OP:mav  STATUS:               ID:20140722131400     3
 OLDACT:REG 14-07-22 13:47 OP:mav  STATUS:               ID:20140722131400     3
 2014-07-22-1314-00S.MAN___155                                                 6
 STAT SP IPHASW D HRMM SECON CODA AMPLIT PERI AZIMU VELO AIN AR TRES W  DIS CAZ7
 TURV HZ EP       1316  5.18                              98   -0.2710 34.0  17 
 TURV HN ES       1316  9.31                              98   -0.6010 34.0  17 
 MAPV HZ EP       1316 11.31                              65    0.0610 68.2 238 
 MAPV HN ES       1316 20.63                              65    0.6210 68.2 238 
 BAUV HZ EP       1316 21.67                              65   -0.1010  135 185 
 BAUV HN ES       1316 37.35                              65   -0.9510  135 185 
 BIRV HZ EP       1316 29.50                              43    0.7110  185  79 
 BIRV HN ES       1316 51.04                              43    0.5310  185  79 
                                                                                
 2014  725 0010  4.9 L  10.176 -68.027  5.0F FUN  4 0.8 1.8WFUN                1
 SPEC AVERAGE  MO 11.8 ST0.383 OM  0.5 f0 8.32 R0.2028 AL 3.11 WI 20.6 MW  1.8 3
 SPEC SD       MO  0.4 ST0.126 OM  0.2 f0 2.14 R0.0676 AL      WI      MW  0.3 3
 GAP=163        1.86       5.5     6.8  0.0 -0.2614E+02  0.0000E+00  0.0000E+00E
 SPEC TURVHH N MO 11.1 ST0.310 OM  0.4 f0 10.7 R0.1245 AL 2.06 WI  9.7 MW  1.4 3
 SPEC TURVHH N T 01013 K 0.000 GD 36.9 VS 3.60 DE 3.00 Q0440.0 QA 0.70 VS 3.60 3
 SPEC MAPVHH N MO 12.3 ST0.427 OM  0.6 f0 8.64 R0.2655 AL 4.84 WI 32.1 MW  2.1 3
 SPEC MAPVHH N T 01019 K 0.000 GD 60.9 VP 6.20 DE 3.00 Q0440.0 QA 0.70 VS 3.60 3
 SPEC BIRVHH N MO 11.6 ST0.565 OM  0.3 f0 9.06 R0.1470 AL 3.83 WI 27.3 MW  1.7 3
 SPEC BIRVHH N T 01052 K 0.000 GD  139 VS 3.60 DE 3.00 Q0440.0 QA 0.70 VS 3.60 3
 SPEC BAUVHH E MO 12.0 ST0.231 OM  0.8 f0 4.86 R0.2741 AL 1.73 WI 13.2 MW  2.0 3
 SPEC BAUVHH E T 01042 K 0.000 GD  116 VS 3.60 DE 3.00 Q0440.0 QA 0.70 VS 3.60 3
 ACTION:UP  14-07-24 22:31 OP:they STATUS:               ID:20140725000900     I
 OLDACT:UP  14-07-24 22:29 OP:they STATUS:               ID:20140725000900     3
 OLDACT:UP  14-07-24 22:27 OP:they STATUS:               ID:20140725000900     3
 OLDACT:REG 14-07-24 21:26 OP:they STATUS:               ID:20140725000900     3
 2014-07-25-0009-00S.MAN___155                                                 6
 STAT SP IPHASW D HRMM SECON CODA AMPLIT PERI AZIMU VELO AIN AR TRES W  DIS CAZ7
 TURV HZ EP        010 11.06                              98   -0.3010 36.6  34 
 TURV HN ES        010 15.07                              98   -1.0810 36.6  34 
 MAPV HZ EP        010 15.69                              65    0.1710 60.7 231 
 MAPV HN ES        010 23.72                              65    0.3410 60.7 231 
 BAUV HZ EP        010 27.27                              65   -0.2310  136 181 
 BAUV HE ES        010 43.16                              65   -1.0810  136 181 
 BIRV HZ EP        010 37.18                              43    1.7010  195  80 
 BIRV HN ES        010 58.61                              43    0.4910  195  80 
                                                                                
 2014  725 0203 25.5 L  10.191 -68.075  5.0F FUN  3 0.6 1.4WFUN                1
 SPEC AVERAGE  MO 11.2 ST0.100 OM  0.1 f0 6.75 R0.2015 AL 1.81 WI 10.3 MW  1.4 3
 SPEC SD       MO  0.3 ST0.029 OM  0.2 f00.946 R0.0301 AL      WI      MW  0.2 3
 GAP=224        1.33       6.2    13.0  0.0 -0.6884E+02  0.0000E+00  0.0000E+00E
 SPEC TURVHH E MO 10.9 ST0.063 OM  0.1 f0 7.77 R0.1714 AL 1.42 WI  8.4 MW  1.2 3
 SPEC TURVHH E T 2 335 K 0.000 GD 38.8 VS 3.60 DE 3.00 Q0440.0 QA 0.70 VS 3.60 3
 SPEC BIRVHH N MO 11.2 ST0.105 OM -0.1 f0 6.99 R0.1906 AL 2.30 WI 11.4 MW  1.4 3
 SPEC BIRVHH N T 2 419 K 0.000 GD  141 VS 3.60 DE 3.00 Q0440.0 QA 0.70 VS 3.60 3
 SPEC BAUVHH E MO 11.6 ST0.133 OM  0.4 f0 5.49 R0.2426 AL 1.70 WI 11.0 MW  1.7 3
 SPEC BAUVHH E T 2 4 3 K 0.000 GD  117 VS 3.60 DE 3.00 Q0440.0 QA 0.70 VS 3.60 3
 ACTION:UP  14-07-24 22:39 OP:they STATUS:               ID:20140725020200     I
 OLDACT:UP  14-07-24 22:38 OP:they STATUS:               ID:20140725020200     3
 OLDACT:REG 14-07-24 21:51 OP:they STATUS:               ID:20140725020200     3
 2014-07-25-0202-00S.MAN___155                                                 6
 STAT SP IPHASW D HRMM SECON CODA AMPLIT PERI AZIMU VELO AIN AR TRES W  DIS CAZ7
 TURV HZ EP        2 3 32.38                              97    0.0910 38.5  42 
 TURV HE ES        2 3 36.44                              97   -0.8810 38.5  42 
 BAUV HZ EP        2 3 48.64                              65    0.2710  138 178 
 BAUV HE ES        2 4  4.59                              65   -0.7210  138 178 
 BIRV HZ EP        2 3 57.61                              43    0.9510  200  81 
 BIRV HN ES        2 4 20.04                              43    0.3010  200  81 
                                                                                
 2014  727 1528 54.9 L  10.641 -67.666  5.0F FUN  5 0.4 2.5WFUN                1
 SPEC AVERAGE  MO 12.8 ST0.913 OM  1.6 f0 3.85 R0.4217 AL 0.62 WI 16.2 MW  2.5 3
 SPEC SD       MO  0.2 ST0.907 OM  0.2 f0 1.76 R0.1703 AL      WI      MW  0.1 3
 GAP=218        0.97       6.6     2.7  0.0 -0.1292E+02  0.0000E+00  0.0000E+00E
 SPEC TURVHH N MO 12.6 ST0.106 OM  2.0 f0 2.38 R0.5597 AL 0.55 WI 13.6 MW  2.4 3
 SPEC TURVHH N T1529 3 K 0.000 GD 28.8 VS 3.60 DE 3.00 Q0440.0 QA 0.70 VS 3.60 3
 SPEC SANVHH N MO 13.1 ST0.217 OM  1.7 f0 2.17 R0.6138 AL 0.74 WI 22.3 MW  2.6 3
 SPEC SANVHH N T1530 3 K 0.000 GD  155 VS 3.60 DE 3.00 Q0440.0 QA 0.70 VS 3.60 3
 SPEC BIRVHH N MO 12.7 ST  2.4 OM  1.4 f0 6.54 R0.2037 AL 0.72 WI 14.6 MW  2.4 3
 SPEC BIRVHH N T152937 K 0.000 GD  124 VS 3.60 DE 3.00 Q0440.0 QA 0.70 VS 3.60 3
 SPEC BAUVHH N MO 12.8 ST0.951 OM  1.5 f0 4.30 R0.3098 AL 0.48 WI 14.4 MW  2.5 3
 SPEC BAUVHH N T152948 K 0.000 GD  138 VS 3.60 DE 3.00 Q0440.0 QA 0.70 VS 3.60 3
 ACTION:UP  14-07-27 11:22 OP:re   STATUS:               ID:20140727152800     I
 OLDACT:UP  14-07-27 11:21 OP:re   STATUS:               ID:20140727152800     3
 OLDACT:UP  14-07-27 11:20 OP:re   STATUS:               ID:20140727152800     3
 OLDACT:UP  14-07-27 11:18 OP:re   STATUS:               ID:20140727152800     3
 OLDACT:UP  14-07-27 11:16 OP:re   STATUS:               ID:20140727152800     3
 OLDACT:UP  14-07-27 11:14 OP:re   STATUS:               ID:20140727152800     3
 OLDACT:REG 14-07-27 11:13 OP:re   STATUS:               ID:20140727152800     3
 2014-07-27-1528-00S.MAN___155                                                 6
 STAT SP IPHASW D HRMM SECON CODA AMPLIT PERI AZIMU VELO AIN AR TRES W  DIS CAZ7
 TURV HZ EP       1528 59.49                             100   -0.4910 28.4 222 
 TURV HN ES       1529  3.53                             100   -0.2010 28.4 222 
 CARV HZ EP       1529  8.28                              65   -0.7210 82.1 101 
 CARV HN ES       1529 19.47                              65    0.0410 82.1 101 
 BIRV HZ EP       1529 20.18                              65   -0.1710  154  97 
 BIRV HN ES       1529 39.52                              65    0.3510  154  97 
 BAUV HZ EP       1529 25.99                              43    0.8710  192 192 
 BAUV HN ES       1529 47.40                              43   -0.0710  192 192 
 SANV HZ EP       1529 31.38                              43    0.2910  241 239 
 SANV HN ES       1529 57.94                              43    0.0910  241 239 
                                                                                
 2014  728 0553 17.0 L  10.344 -67.487 15.8  FUN  5 0.3 2.1WFUN                1
 SPEC AVERAGE  MO 12.3 ST0.937 OM  1.1 f0 6.09 R0.2431 AL 0.94 WI 13.0 MW  2.1 3
 SPEC SD       MO  0.1 ST0.605 OM  0.3 f0 1.69 R0.0893 AL      WI      MW  0.1 3
 GAP=153        0.85      14.5     1.6 15.1 -0.2170E+01 -0.9994E+00  0.2128E+03E
 SPEC TURVHH N MO 12.4 ST0.180 OM  1.6 f0 3.37 R0.3953 AL 0.00 WI 14.1 MW  2.2 3
 SPEC TURVHH N T 55329 K 0.000 GD 43.3 VS 3.60 DE 3.00 Q0440.0 QA 0.70 VS 3.60 3
 SPEC FUNVHH N MO 12.2 ST0.802 OM  1.1 f0 6.72 R0.1982 AL 1.10 WI 12.8 MW  2.0 3
 SPEC FUNVHH N T 55338 K 0.000 GD 76.9 VS 3.60 DE 3.00 Q0440.0 QA 0.70 VS 3.60 3
 SPEC BIRVHH N MO 12.3 ST  1.9 OM  1.0 f0 7.98 R0.1669 AL 0.97 WI  9.9 MW  2.1 3
 SPEC BIRVHH N T 55356 K 0.000 GD  134 VS 3.60 DE 3.00 Q0440.0 QA 0.70 VS 3.60 3
 SPEC BAUVHH N MO 12.3 ST0.895 OM  0.9 f0 6.28 R0.2121 AL 1.70 WI 15.2 MW  2.1 3
 SPEC BAUVHH N T 554 1 K 0.000 GD  166 VS 3.60 DE 3.00 Q0440.0 QA 0.70 VS 3.60 3
 ACTION:UP  14-07-28 06:02 OP:re   STATUS:               ID:20140728055200     I
 OLDACT:UP  14-07-28 06:02 OP:re   STATUS:               ID:20140728055200     3
 OLDACT:UP  14-07-28 06:01 OP:re   STATUS:               ID:20140728055200     3
 OLDACT:UP  14-07-28 06:00 OP:re   STATUS:               ID:20140728055200     3
 OLDACT:REG 14-07-28 06:00 OP:re   STATUS:               ID:20140728055200     3
 2014-07-28-0552-00S.MAN___155                                                 6
 STAT SP IPHASW D HRMM SECON CODA AMPLIT PERI AZIMU VELO AIN AR TRES W  DIS CAZ7
 TURV HZ EP        553 24.29                             106    0.0310 40.3 287 
 TURV HN ES        553 29.55                             106   -0.0710 40.3 287 
 FUNV HZ EP        553 29.56                              97   -0.2310 75.3  79 
 FUNV HN ES        553 38.78                              97   -0.4610 75.3  79 
 BIRV HZ EP        553 39.37                              93    0.3410  134  84 
 BIRV HN ES        553 55.62                              93    0.3010  134  84 
 BAUV HZ EP        553 43.43                              49    0.5110  166 201 
 BAUV HN ES        554  1.72                              49   -0.3610  166 201 
 SANV HZ EP        553 52.25                              49   -0.0610  243 248 
                                                                                
 2014  728 1237 15.9 L  10.205 -67.864  0.1  FUN  4 0.5 1.7WFUN                1
 SPEC AVERAGE  MO 11.6 ST0.642 OM  0.4 f0 10.2 R0.1543 AL 3.88 WI 21.3 MW  1.7 3
 SPEC SD       MO  0.3 ST0.451 OM  0.3 f0 1.92 R0.0431 AL      WI      MW  0.2 3
 GAP=128        1.24       6.5    12.2 18.7 -0.7346E+02 -0.2166E+03  0.1107E+03E
 SPEC TURVHH N MO 11.4 ST0.294 OM  0.8 f0 8.56 R0.1556 AL 0.78 WI 13.8 MW  1.5 3
 SPEC TURVHH N T123722 K 0.000 GD 27.2 VS 3.60 DE 3.00 Q0440.0 QA 0.70 VS 3.60 3
 SPEC MAPVHH N MO 11.2 ST0.555 OM  0.1 f0 12.8 R0.1041 AL 5.74 WI 25.8 MW  1.4 3
 SPEC MAPVHH N T123736 K 0.000 GD 77.1 VS 3.60 DE 3.00 Q0440.0 QA 0.70 VS 3.60 3
 SPEC MAPVHH Z MO 11.7 ST0.183 OM -0.1 f0 10.3 R0.2227 AL 2.76 WI 12.2 MW  1.7 3
 SPEC MAPVHH Z T123729 K 0.000 GD 77.1 VP 6.20 DE 3.00 Q0440.0 QA 0.70 VS 3.60 3
 SPEC BIRVHH N MO 11.7 ST  1.5 OM  0.4 f0 11.7 R0.1138 AL 8.09 WI 26.5 MW  1.7 3
 SPEC BIRVHH N T1238 4 K 0.000 GD  133 VS 3.60 DE 3.00 Q0440.0 QA 0.70 VS 3.60 3
 SPEC BAUVHH N MO 11.9 ST0.716 OM  0.7 f0 7.61 R0.1750 AL 2.04 WI 28.2 MW  1.9 3
 SPEC BAUVHH N T123756 K 0.000 GD  118 VS 3.60 DE 3.00 Q0440.0 QA 0.70 VS 3.60 3
 ACTION:UP  14-07-29 09:14 OP:mav  STATUS:               ID:20140728123501d    I
 OLDACT:UP  14-07-28 08:49 OP:mav  STATUS:               ID:20140728123501d    3
 OLDACT:UP  14-07-28 08:27 OP:mav  STATUS:               ID:20140728123501d    3
 OLDACT:UP  14-07-28 08:26 OP:mav  STATUS:               ID:20140728123501d    3
 OLDACT:UP  14-07-28 08:25 OP:mav  STATUS:               ID:20140728123501d    3
 OLDACT:DUP 14-07-28 08:24 OP:mav  STATUS:               ID:20140728123501d    3
 OLDACT:UP  14-07-28 08:23 OP:mav  STATUS:               ID:20140728123500     3
 OLDACT:REG 14-07-28 08:19 OP:mav  STATUS:               ID:20140728123500     3
 2014-07-28-1235-00S.MAN___155                                                 6
 STAT SP IPHASW D HRMM SECON CODA AMPLIT PERI AZIMU VELO AIN AR TRES W  DIS CAZ7
 TURV HZ IP     C 1237 20.49                              90   -0.2010 27.2   6 
 TURV HN ES       1237 23.77                              90   -0.4510 27.2   6 
 MAPV HZ EP       1237 29.92                              90    0.4810 77.1 238 
 MAPV HN ES       1237 39.87                              90    0.4210 77.1 238 
 BAUV HZ EP       1237 39.25                              65   -0.3810  141 188 
 BAUV HN ES       1237 56.45                              65   -0.7210  141 188 
 BIRV HZ EP       1237 45.15                              43    0.1910  177  80 
 BIRV HN ES       1238  7.12                              43    0.6710  177  80 
                                                                                
