 2014  816 1322 29.8 L  10.427 -67.647  2.0  FUN  7 0.3 2.0WFUN                1
 SPEC AVERAGE  MO 12.1 ST0.287 OM  0.8 f0 4.05 R0.4050 AL 2.40 WI 14.0 MW  2.0 3
 SPEC SD       MO  0.1 ST0.339 OM  0.1 f0 1.85 R0.1724 AL      WI      MW  0.1 3
 GAP=148        0.85       3.1     1.5  3.8 -0.9040E+00 -0.2134E+01  0.5937E+01E
 SPEC SANVHH N MO 12.1 ST0.023 OM  0.8 f0 2.05 R0.6498 AL 1.83 WI 15.5 MW  2.0 3
 SPEC SANVHH N T132331 K 0.000 GD  151 VS 3.60 DE 3.00 Q0440.0 QA 0.70 VS 3.60 3
 SPEC JACVHH N MO 12.2 ST0.044 OM  0.9 f0 2.55 R0.5224 AL 1.21 WI  5.1 MW  2.0 3
 SPEC JACVHH N T132312 K 0.000 GD  122 VS 3.60 DE 3.00 Q0440.0 QA 0.70 VS 3.60 3
 SPEC MAPVHH N MO 12.0 ST0.414 OM  0.8 f0 6.11 R0.2180 AL 3.70 WI 16.9 MW  1.9 3
 SPEC MAPVHH N T1323 1 K 0.000 GD  105 VS 3.60 DE 3.00 Q0440.0 QA 0.70 VS 3.60 3
 SPEC BIRVHH N MO 12.3 ST0.900 OM  1.0 f0 6.45 R0.2065 AL 4.00 WI 16.0 MW  2.1 3
 SPEC BIRVHH N T132312 K 0.000 GD  122 VS 3.60 DE 3.00 Q0440.0 QA 0.70 VS 3.60 3
 SPEC BAUVHH N MO 12.0 ST0.054 OM  0.7 f0 3.11 R0.4283 AL 1.24 WI 16.7 MW  1.9 3
 SPEC BAUVHH N T132317 K 0.000 GD  130 VS 3.60 DE 3.00 Q0440.0 QA 0.70 VS 3.60 3
 ACTION:UP  14-08-27 10:18 OP:mig  STATUS:               ID:20140816132100     I
 OLDACT:UP  14-08-27 10:15 OP:mig  STATUS:               ID:20140816132100     3
 OLDACT:UP  14-08-16 11:53 OP:re   STATUS:               ID:20140816132100     3
 OLDACT:UP  14-08-16 11:52 OP:re   STATUS:               ID:20140816132100     3
 OLDACT:UP  14-08-16 11:52 OP:re   STATUS:               ID:20140816132100     3
 OLDACT:UP  14-08-16 11:51 OP:re   STATUS:               ID:20140816132100     3
 OLDACT:UP  14-08-16 11:10 OP:re   STATUS:               ID:20140816132100     3
 OLDACT:UP  14-08-16 11:10 OP:re   STATUS:               ID:20140816132100     3
 OLDACT:UP  14-08-16 11:09 OP:re   STATUS:               ID:20140816132100     3
 OLDACT:UP  14-08-16 09:23 OP:re   STATUS:               ID:20140816132100     3
 OLDACT:UP  14-08-16 09:22 OP:re   STATUS:               ID:20140816132100     3
 OLDACT:UP  14-08-16 09:22 OP:re   STATUS:               ID:20140816132100     3
 OLDACT:UP  14-08-16 09:21 OP:re   STATUS:               ID:20140816132100     3
 OLDACT:UP  14-08-16 09:21 OP:re   STATUS:               ID:20140816132100     3
 OLDACT:UP  14-08-16 09:20 OP:re   STATUS:               ID:20140816132100     3
 OLDACT:UP  14-08-16 09:19 OP:re   STATUS:               ID:20140816132100     3
 OLDACT:REG 14-08-16 09:19 OP:re   STATUS:               ID:20140816132100     3
 2014-08-16-1321-00S.MAN___155                                                 6
 STAT SP IPHASW D HRMM SECON CODA AMPLIT PERI AZIMU VELO AIN AR TRES W  DIS CAZ7
 TURV HZ EP       1322 33.69                              95    0.1510 21.2 277 
 TURV HE ES       1322 36.30                              95   -0.0110 21.2 277 
 MAPV HZ EP       1322 48.23                              65   -0.3510  111 233 
 MAPV HN ES       1323  2.19                              65   -0.2910  111 233 
 JACV HN ES       1323 12.65                              65   -0.3110  149 300 
 BIRV HZ EP       1322 55.03                              65    0.0610  151  88 
 BIRV HN ES       1323 13.11                              65   -0.4910  151  88 
 BAUV HZ EP       1322 58.02                              43    0.3410  170 195 
 BAUV HN ES       1323 17.96                              43   -0.3410  170 195 
 CUPV HZ EP       1323  2.75                              43    0.4110  208 101 
 CUPV HN ES       1323 26.49                              43    0.0810  208 101 
 SANV HZ EP       1323  5.60                              43    0.4010  231 244 
 SANV HN ES       1323 31.75                              43    0.3510  231 244 
                                                                                
 2014  816 1351 17.7 L  10.470 -67.635  5.0F FUN  9 0.5 2.8WFUN                1
 SPEC AVERAGE  MO 13.3 ST0.707 OM  2.1 f0 1.64 R2.1432 AL 2.10 WI 27.5 MW  2.8 3
 SPEC SD       MO  0.3 ST  1.4 OM  0.3 f0 1.84 R1.3997 AL      WI      MW  0.2 3
 GAP=149        1.18       3.4     1.5  0.0 -0.3952E+00  0.0000E+00  0.0000E+00E
 SPEC TURVHH E MO 13.1 ST0.001 OM  2.6 f00.336 R3.9643 AL 0.81 WI 14.6 MW  2.7 3
 SPEC TURVHH E T135123 K 0.000 GD 23.0 VS 3.60 DE 3.00 Q0440.0 QA 0.70 VS 3.60 3
 SPEC MERVHH N MO 13.0 ST0.863 OM  1.7 f0 3.55 R0.3752 AL 2.90 WI 29.8 MW  2.6 3
 SPEC MERVHH N T135211 K 0.000 GD  141 VS 3.60 DE 3.00 Q0440.0 QA 0.70 VS 3.60 3
 SPEC CUPVHH N MO 13.5 ST0.030 OM  2.2 f00.786 R1.6947 AL 1.76 WI 39.3 MW  3.0 3
 SPEC CUPVHH N T135210 K 0.000 GD  144 VS 3.60 DE 3.00 Q0440.0 QA 0.70 VS 3.60 3
 SPEC JACVHH N MO 12.9 ST0.004 OM  1.7 f00.633 R2.1043 AL 1.82 WI 18.1 MW  2.6 3
 SPEC JACVHH N T135159 K 0.000 GD  121 VS 3.60 DE 3.00 Q0440.0 QA 0.70 VS 3.60 3
 SPEC FUNVHH N MO 13.2 ST0.004 OM  2.1 f00.496 R2.6855 AL 1.50 WI 38.2 MW  2.8 3
 SPEC FUNVHH N T135142 K 0.000 GD 90.4 VS 3.60 DE 3.00 Q0440.0 QA 0.70 VS 3.60 3
 SPEC BIRVHH N MO 13.2 ST  4.0 OM  1.9 f0 5.34 R0.2494 AL 4.54 WI 14.5 MW  2.7 3
 SPEC BIRVHH N T135159 K 0.000 GD  122 VS 3.60 DE 3.00 Q0440.0 QA 0.70 VS 3.60 3
 SPEC BAUVHH N MO 13.8 ST0.004 OM  2.5 f00.339 R3.9292 AL 1.35 WI 37.8 MW  3.1 3
 SPEC BAUVHH N T1352 5 K 0.000 GD  132 VS 3.60 DE 3.00 Q0440.0 QA 0.70 VS 3.60 3
 ACTION:UP  14-08-27 10:38 OP:mig  STATUS:               ID:20140816135000     I
 OLDACT:UP  14-08-27 10:33 OP:mig  STATUS:               ID:20140816135000     3
 OLDACT:UP  14-08-27 10:32 OP:mig  STATUS:               ID:20140816135000     3
 OLDACT:UP  14-08-16 11:58 OP:re   STATUS:               ID:20140816135000     3
 OLDACT:UP  14-08-16 11:55 OP:re   STATUS:               ID:20140816135000     3
 OLDACT:UP  14-08-16 11:54 OP:re   STATUS:               ID:20140816135000     3
 OLDACT:UP  14-08-16 09:41 OP:re   STATUS:               ID:20140816135000     3
 OLDACT:UP  14-08-16 09:41 OP:re   STATUS:               ID:20140816135000     3
 OLDACT:UP  14-08-16 09:40 OP:re   STATUS:               ID:20140816135000     3
 OLDACT:UP  14-08-16 09:40 OP:re   STATUS:               ID:20140816135000     3
 OLDACT:UP  14-08-16 09:40 OP:re   STATUS:               ID:20140816135000     3
 OLDACT:UP  14-08-16 09:38 OP:re   STATUS:               ID:20140816135000     3
 OLDACT:UP  14-08-16 09:38 OP:re   STATUS:               ID:20140816135000     3
 OLDACT:UP  14-08-16 09:38 OP:re   STATUS:               ID:20140816135000     3
 OLDACT:UP  14-08-16 09:37 OP:re   STATUS:               ID:20140816135000     3
 OLDACT:UP  14-08-16 09:36 OP:re   STATUS:               ID:20140816135000     3
 OLDACT:UP  14-08-16 09:36 OP:re   STATUS:               ID:20140816135000     3
 OLDACT:UP  14-08-16 09:35 OP:re   STATUS:               ID:20140816135000     3
 OLDACT:UP  14-08-16 09:33 OP:re   STATUS:               ID:20140816135000     3
 OLDACT:UP  14-08-16 09:30 OP:re   STATUS:               ID:20140816135000     3
 OLDACT:REE 14-08-16 09:29 OP:re   STATUS:               ID:20140816135000     3
 2014-08-16-1350-00S.MAN___155                                                 6
 STAT SP IPHASW D HRMM SECON CODA AMPLIT PERI AZIMU VELO AIN AR TRES W  DIS CAZ7
 TURV HZ EP       1351 21.55                             103   -0.1710 22.5 264 
 TURV HE ES       1351 24.20                             103   -0.5110 22.5 264 
 CARV HZ EP       1351 30.33                              65   -0.6910 77.4  87 
 CARV HN ES       1351 40.10                              65   -0.7910 77.4  87 
 FUNV HZ EP       1351 32.50                              65   -0.5610 90.3  90 
 FUNV HN ES       1351 44.09                              65   -0.3510 90.3  90 
 MAPV HZ EP       1351 36.14                              65   -0.7110  114 232 
 MAPV HE ES       1351 51.52                              65    0.4810  114 232 
 JACV HZ EP       1351 42.63                              65    0.5510  147 298 
 JACV HN ES       1352  0.39                              65    0.2610  147 298 
 BIRV HZ EP       1351 42.76                              65    0.3610  150  90 
 BIRV HN ES       1352  1.29                              65    0.5910  150  90 
 BAUV HZ EP       1351 45.74                              43   -0.0210  175 195 
 BAUV HN ES       1352  6.23                              43   -0.3110  175 195 
 MERV HZ EP       1351 49.03                              43    0.2910  199 132 
 MERV HN ES       1352 12.23                              43    0.5110  199 132 
 CUPV HZ EP       1351 50.57                              43    0.7710  208 103 
 CUPV HN ES       1352 13.83                              43    0.2710  208 103 
                                                                                
 2014  816 1357 44.6 L  10.586 -67.708  9.0  FUN  9 0.7 2.3WFUN                1
 SPEC AVERAGE  MO 12.5 ST0.509 OM  1.3 f0 3.97 R0.4095 AL 2.75 WI 16.0 MW  2.3 3
 SPEC SD       MO  0.3 ST0.479 OM  0.2 f0 1.60 R0.2024 AL      WI      MW  0.2 3
 GAP=160        1.75       5.5     3.6  7.2 -0.4400E+01 -0.1537E+02  0.4568E+01E
 SPEC MERVHH N MO 12.6 ST0.949 OM  1.3 f0 4.92 R0.2707 AL 3.51 WI 13.6 MW  2.4 3
 SPEC MERVHH N T135840 K 0.000 GD  146 VS 3.60 DE 3.00 Q0440.0 QA 0.70 VS 3.60 3
 SPEC JACVHH N MO 12.2 ST0.104 OM  1.0 f0 3.20 R0.4162 AL 1.77 WI 14.9 MW  2.1 3
 SPEC JACVHH N T135821 K 0.000 GD  116 VS 3.60 DE 3.00 Q0440.0 QA 0.70 VS 3.60 3
 SPEC FUNVHH E MO 12.3 ST0.131 OM  1.1 f0 3.37 R0.3953 AL 2.21 WI 10.8 MW  2.1 3
 SPEC FUNVHH E T135811 K 0.000 GD 99.5 VS 3.60 DE 3.00 Q0440.0 QA 0.70 VS 3.60 3
 SPEC BAUVHH E MO 12.8 ST0.223 OM  1.5 f0 2.67 R0.4989 AL 1.77 WI 20.9 MW  2.5 3
 SPEC BAUVHH E T135832 K 0.000 GD  136 VS 3.60 DE 3.00 Q0440.0 QA 0.70 VS 3.60 3
 SPEC MAPVHH N MO 12.3 ST0.695 OM  1.1 f0 5.72 R0.2329 AL 3.42 WI 21.2 MW  2.1 3
 SPEC MAPVHH N T135818 K 0.000 GD  108 VS 3.60 DE 3.00 Q0440.0 QA 0.70 VS 3.60 3
 SPEC CUPVHH N MO 12.9 ST0.063 OM  1.6 f0 1.58 R0.8430 AL 2.03 WI 18.0 MW  2.6 3
 SPEC CUPVHH N T135841 K 0.000 GD  147 VS 3.60 DE 3.00 Q0440.0 QA 0.70 VS 3.60 3
 SPEC BIRVHH N MO 12.5 ST  1.4 OM  1.2 f0 6.36 R0.2094 AL 4.51 WI 12.3 MW  2.3 3
 SPEC BIRVHH N T135828 K 0.000 GD  125 VS 3.60 DE 3.00 Q0440.0 QA 0.70 VS 3.60 3
 ACTION:UP  14-08-27 11:02 OP:mig  STATUS:               ID:20140816135600     I
 OLDACT:UP  14-08-27 11:00 OP:mig  STATUS:               ID:20140816135600     3
 OLDACT:UP  14-08-16 16:38 OP:re   STATUS:               ID:20140816135600     3
 OLDACT:UP  14-08-16 16:38 OP:re   STATUS:               ID:20140816135600     3
 OLDACT:UP  14-08-16 16:36 OP:re   STATUS:               ID:20140816135600     3
 OLDACT:REG 14-08-16 16:35 OP:re   STATUS:               ID:20140816135600     3
 2014-08-16-1356-00S.MAN___155                                                 6
 STAT SP IPHASW D HRMM SECON CODA AMPLIT PERI AZIMU VELO AIN AR TRES W  DIS CAZ7
 TURV HZ EP       1357 48.95                              96    0.3610 20.8 224 
 TURV HE ES       1357 51.63                              96    0.1010 20.8 224 
 FUNV HE ES       1358 12.00                              90   -1.2810 99.1  97 
 MAPV HZ EP       1358  3.72                              90   -0.1710  117 225 
 MAPV HN ES       1358 18.46                              90    0.3010  117 225 
 JACV HN ES       1358 22.32                              90   -0.6810  135 294 
 BIRV HZ EP       1358 10.54                              49    0.3510  158  94 
 BIRV HN ES       1358 29.22                              49    0.0910  158  94 
 BAUV HZ EP       1358 13.43                              49   -0.0410  185 191 
 BAUV HE ES       1358 33.44                              49   -1.3810  185 191 
 MERV HN ES       1358 41.36                              49    0.5410  214 134 
 CUPV HZ EP       1358 17.85                              49    0.3210  218 105 
 CUPV HN ES       1358 42.58                              49    0.7010  218 105 
 CURV HZ EP       1358 22.72                              49    0.8010  255 256 
                                                                                
 2014  816 1420 17.5 L  10.489 -67.691 10.6  FUN  5 0.2 1.7WFUN                1
 SPEC AVERAGE  MO 11.6 ST0.185 OM  0.6 f0 5.69 R0.2466 AL 2.25 WI  8.8 MW  1.7 3
 SPEC SD       MO  0.3 ST0.169 OM  0.1 f0 1.19 R0.0601 AL      WI      MW  0.2 3
 GAP=196        0.47      11.3     9.1 11.6 -0.9985E+02 -0.1047E+03  0.1272E+03E
 SPEC TURVHH N MO 11.2 ST0.070 OM  0.7 f0 6.35 R0.2098 AL 1.54 WI  8.3 MW  1.4 3
 SPEC TURVHH N T142023 K 0.000 GD 19.9 VS 3.60 DE 3.00 Q0440.0 QA 0.70 VS 3.60 3
 SPEC BIRVHH N MO 11.9 ST0.424 OM  0.6 f0 6.70 R0.1988 AL 3.71 WI 10.0 MW  1.9 3
 SPEC BIRVHH N T1421 0 K 0.000 GD  129 VS 3.60 DE 3.00 Q0440.0 QA 0.70 VS 3.60 3
 SPEC BAUVHH N MO 11.7 ST0.062 OM  0.4 f0 4.02 R0.3313 AL 1.49 WI  8.2 MW  1.7 3
 SPEC BAUVHH N T1421 5 K 0.000 GD  138 VS 3.60 DE 3.00 Q0440.0 QA 0.70 VS 3.60 3
 ACTION:UP  14-08-27 11:06 OP:mig  STATUS:               ID:20140816141900     I
 OLDACT:UP  14-08-27 11:05 OP:mig  STATUS:               ID:20140816141900     3
 OLDACT:UP  14-08-16 16:58 OP:re   STATUS:               ID:20140816141900     3
 OLDACT:REE 14-08-16 16:58 OP:re   STATUS:               ID:20140816141900     3
 2014-08-16-1419-00S.MAN___155                                                 6
 STAT SP IPHASW D HRMM SECON CODA AMPLIT PERI AZIMU VELO AIN AR TRES W  DIS CAZ7
 TURV HZ EP       1420 20.95                             114   -0.0110 16.8 255 
 TURV HN ES       1420 23.55                             114    0.0410 16.8 255 
 MAPV HN ES       1420 49.28                              91   -0.1710  111 229 
 BIRV HN ES       1421  1.07                              49   -0.1910  156  90 
 BAUV HZ EP       1420 45.29                              49    0.2810  175 193 
 BAUV HN ES       1421  5.30                              49   -0.0510  175 193 
 CUPV HN ES       1421 13.68                              49    0.1010  214 103 
                                                                                
 2014  816 1424  6.1 L  10.550 -67.725 14.0  FUN  5 0.3 1.6WFUN                1
 SPEC AVERAGE  MO 11.5 ST0.245 OM  0.3 f0 6.76 R0.2527 AL 1.93 WI  8.3 MW  1.6 3
 SPEC SD       MO  0.4 ST0.262 OM  0.3 f0 2.72 R0.1467 AL      WI      MW  0.2 3
 GAP=224        0.75      14.0     9.5  6.8 -0.1263E+03 -0.6147E+02  0.8241E+02E
 SPEC TURVHH N MO 11.0 ST0.200 OM  0.5 f0 10.2 R0.1306 AL 2.25 WI  8.2 MW  1.3 3
 SPEC TURVHH N T142411 K 0.000 GD 21.9 VS 3.60 DE 3.00 Q0440.0 QA 0.70 VS 3.60 3
 SPEC CUPVHH N MO 11.9 ST0.684 OM  0.4 f0 7.69 R0.1732 AL 1.61 WI 11.6 MW  1.9 3
 SPEC CUPVHH N T1425 2 K 0.000 GD  219 VS 3.60 DE 3.00 Q0440.0 QA 0.70 VS 3.60 3
 SPEC BIRVHH E MO 11.2 ST0.077 OM -0.2 f0 6.52 R0.2043 AL 2.37 WI  4.1 MW  1.4 3
 SPEC BIRVHH E T142449 K 0.000 GD  160 VS 3.60 DE 3.00 Q0440.0 QA 0.70 VS 3.60 3
 SPEC BAUVHH E MO 11.7 ST0.018 OM  0.3 f0 2.65 R0.5026 AL 1.48 WI  9.2 MW  1.8 3
 SPEC BAUVHH E T142453 K 0.000 GD  181 VS 3.60 DE 3.00 Q0440.0 QA 0.70 VS 3.60 3
 ACTION:UP  14-08-27 11:11 OP:mig  STATUS:               ID:20140816141903d    I
 OLDACT:UP  14-08-27 11:10 OP:mig  STATUS:               ID:20140816141903d    3
 OLDACT:DUP 14-08-27 11:07 OP:mig  STATUS:               ID:20140816141903d    3
 OLDACT:DUP 14-08-16 16:59 OP:re   STATUS:               ID:20140816141902d    3
 OLDACT:DUP 14-08-16 16:58 OP:re   STATUS:               ID:20140816141901d    3
 OLDACT:REE 14-08-16 16:58 OP:re   STATUS:               ID:20140816141900     3
 2014-08-16-1419-00S.MAN___155                                                 6
 STAT SP IPHASW D HRMM SECON CODA AMPLIT PERI AZIMU VELO AIN AR TRES W  DIS CAZ7
 TURV HZ IP     D 1424  9.76                             126    0.0010 16.8 228 
 TURV HN ES       1424 12.34                             126   -0.1610 16.8 228 
 MAPV HE ES       1424 38.73                              93    0.2010  113 225 
 BIRV HE ES       1424 49.60                              49   -0.4010  160  93 
 BAUV HZ EP       1424 34.07                              49    0.1810  181 191 
 BAUV HE ES       1424 54.22                              49   -0.2710  181 191 
 CUPV HN ES       1425  3.03                              49    0.4410  219 104 
                                                                                
 2014  816 1432 28.8 L  10.447 -67.652  5.0F FUN  7 0.4 2.3WFUN                1
 SPEC AVERAGE  MO 12.6 ST  1.5 OM  1.3 f0 6.11 R0.2539 AL 0.62 WI 17.8 MW  2.3 3
 SPEC SD       MO  0.2 ST  1.3 OM  0.2 f0 1.02 R0.0634 AL      WI      MW  0.1 3
 GAP=178        0.97       4.1     1.6  0.0 -0.1534E+01  0.0000E+00  0.0000E+00E
 SPEC TURVHH N MO 12.7 ST0.468 OM  1.5 f0 6.36 R0.3607 AL 0.00 WI 12.6 MW  2.4 3
 SPEC TURVHH N T143233 K 0.000 GD 21.1 VP 6.20 DE 3.00 Q0440.0 QA 0.70 VS 3.60 3
 SPEC SANVHH N MO 12.6 ST  4.0 OM  1.3 f0 7.85 R0.1697 AL 0.00 WI 22.3 MW  2.4 3
 SPEC SANVHH N T143331 K 0.000 GD  152 VS 3.60 DE 3.00 Q0440.0 QA 0.70 VS 3.60 3
 SPEC CUPVHH N MO 12.6 ST  1.1 OM  1.3 f0 5.12 R0.2602 AL 0.00 WI 28.9 MW  2.4 3
 SPEC CUPVHH N T143320 K 0.000 GD  144 VS 3.60 DE 3.00 Q0440.0 QA 0.70 VS 3.60 3
 SPEC BIRVHH N MO 12.7 ST  1.1 OM  1.4 f0 5.06 R0.2632 AL 1.79 WI 16.7 MW  2.4 3
 SPEC BIRVHH N T1433 8 K 0.000 GD  122 VS 3.60 DE 3.00 Q0440.0 QA 0.70 VS 3.60 3
 SPEC BAUVHH N MO 12.3 ST0.845 OM  1.0 f0 6.18 R0.2155 AL 1.31 WI  8.4 MW  2.1 3
 SPEC BAUVHH N T143317 K 0.000 GD  131 VS 3.60 DE 3.00 Q0440.0 QA 0.70 VS 3.60 3
 ACTION:UP  14-08-27 11:24 OP:mig  STATUS:               ID:20140816143100     I
 OLDACT:UP  14-08-27 11:24 OP:mig  STATUS:               ID:20140816143100     3
 OLDACT:UP  14-08-16 14:32 OP:re   STATUS:               ID:20140816143100     3
 OLDACT:UP  14-08-16 14:32 OP:re   STATUS:               ID:20140816143100     3
 OLDACT:UP  14-08-16 14:31 OP:re   STATUS:               ID:20140816143100     3
 OLDACT:UP  14-08-16 14:30 OP:re   STATUS:               ID:20140816143100     3
 OLDACT:UP  14-08-16 14:29 OP:re   STATUS:               ID:20140816143100     3
 OLDACT:UP  14-08-16 14:27 OP:re   STATUS:               ID:20140816143100     3
 OLDACT:UP  14-08-16 14:27 OP:re   STATUS:               ID:20140816143100     3
 OLDACT:REG 14-08-16 14:26 OP:re   STATUS:               ID:20140816143100     3
 2014-08-16-1431-00S.MAN___155                                                 6
 STAT SP IPHASW D HRMM SECON CODA AMPLIT PERI AZIMU VELO AIN AR TRES W  DIS CAZ7
 TURV HZ EP       1432 32.54                             104    0.0310 20.5 271 
 TURV HN ES       1432 35.29                             104    0.0310 20.5 271 
 MAPV HZ EP       1432 46.52                              65   -0.9910  112 232 
 MAPV HN ES       1433  1.48                              65    0.1410  112 232 
 BIRV HZ EP       1432 53.27                              65   -0.5610  151  89 
 BIRV HN ES       1433 12.64                              65    0.3010  151  89 
 BAUV HZ EP       1432 56.77                              43    0.2310  172 194 
 BAUV HN ES       1433 17.19                              43    0.1210  172 194 
 MERV HN ES       1433 22.41                              43   -0.3810  199 132 
 CUPV HZ EP       1433  1.14                              43    0.0610  209 102 
 CUPV HN ES       1433 25.42                              43    0.4610  209 102 
 SANV HN ES       1433 30.39                              43    0.5510  232 243 
                                                                                
