 2014  715 1549 21.5 L  10.207 -68.118  5.0F FUN  3 0.5 2.0WFUN                1
 SPEC AVERAGE  MO 12.0 ST  1.1 OM  0.9 f0 8.11 R0.1724 AL 2.06 WI 21.3 MW  2.0 3
 SPEC SD       MO  0.1 ST0.443 OM  0.1 f0 1.70 R0.0397 AL      WI      MW  0.1 3
 GAP=232        1.17       6.3    12.3  0.0 -0.6866E+02  0.0000E+00  0.0000E+00E
 SPEC TURVHH N MO 11.9 ST  1.4 OM  1.1 f0 9.97 R0.1336 AL 2.03 WI 26.3 MW  1.9 3
 SPEC TURVHH N T154932 K 0.000 GD 40.9 VS 3.60 DE 3.00 Q0440.0 QA 0.70 VS 3.60 3
 SPEC BIRVHH N MO 12.1 ST  1.5 OM  0.8 f0 8.50 R0.1567 AL 2.76 WI 20.7 MW  2.0 3
 SPEC BIRVHH N T155016 K 0.000 GD  143 VS 3.60 DE 3.00 Q0440.0 QA 0.70 VS 3.60 3
 SPEC BAUVHH N MO 12.1 ST0.519 OM  0.9 f0 5.87 R0.2269 AL 1.39 WI 17.0 MW  2.0 3
 SPEC BAUVHH N T1550 0 K 0.000 GD  118 VS 3.60 DE 3.00 Q0440.0 QA 0.70 VS 3.60 3
 ACTION:UP  14-07-15 13:48 OP:mav  STATUS:               ID:20140715154700     I
 OLDACT:UP  14-07-15 13:48 OP:mav  STATUS:               ID:20140715154700     3
 OLDACT:UP  14-07-15 13:47 OP:mav  STATUS:               ID:20140715154700     3
 OLDACT:UP  14-07-15 13:47 OP:mav  STATUS:               ID:20140715154700     3
 OLDACT:REG 14-07-15 13:45 OP:mav  STATUS:               ID:20140715154700     3
 2014-07-15-1547-00S.MAN___155                                                 6
 STAT SP IPHASW D HRMM SECON CODA AMPLIT PERI AZIMU VELO AIN AR TRES W  DIS CAZ7
 TURV HZ IP     C 1549 29.02                              97    0.3010 40.6  49 
 TURV HN ES       1549 33.10                              97   -0.9310 40.6  49 
 BAUV HZ EP       1549 44.83                              65    0.0910  140 177 
 BAUV HN ES       1550  1.40                              65   -0.5110  140 177 
 BIRV HZ EP       1549 53.69                              43    0.4410  205  81 
 BIRV HN ES       1550 17.34                              43    0.6110  205  81 
                                                                                
 2014  716 0013 31.7 L  10.150 -67.907  9.0  FUN  3 0.2 1.4WFUN                1
 SPEC AVERAGE  MO 11.1 ST0.023 OM  0.1 f0 4.47 R0.3023 AL 2.77 WI  9.5 MW  1.4 3
 SPEC SD       MO  0.3 ST0.009 OM  0.2 f00.509 R0.0356 AL      WI      MW  0.2 3
 GAP=174        0.48       1.2     2.3  7.1 -0.1594E+01  0.2267E+01 -0.2677E+00E
 SPEC TURVHH N MO 10.9 ST0.020 OM  0.2 f0 5.05 R0.2638 AL 2.61 WI  8.8 MW  1.2 3
 SPEC TURVHH N T 01342 K 0.000 GD 35.2 VS 3.60 DE 3.00 Q0440.0 QA 0.70 VS 3.60 3
 SPEC MAPVHH N MO 10.9 ST0.014 OM -0.1 f0 4.54 R0.2934 AL 2.75 WI 10.1 MW  1.2 3
 SPEC MAPVHH N T 01351 K 0.000 GD 70.4 VS 3.60 DE 3.00 Q0440.0 QA 0.70 VS 3.60 3
 SPEC BAUVHH N MO 11.5 ST0.035 OM  0.3 f0 3.81 R0.3496 AL 2.94 WI  9.7 MW  1.6 3
 SPEC BAUVHH N T 014 9 K 0.000 GD  115 VS 3.60 DE 3.00 Q0440.0 QA 0.70 VS 3.60 3
 ACTION:UP  14-07-15 20:46 OP:rap  STATUS:               ID:20140716001100     I
 OLDACT:UP  14-07-15 20:45 OP:rap  STATUS:               ID:20140716001100     3
 OLDACT:REG 14-07-15 20:44 OP:rap  STATUS:               ID:20140716001100     3
 2014-07-16-0011-00S.MAN___155                                                 6
 STAT SP IPHASW D HRMM SECON CODA AMPLIT PERI AZIMU VELO AIN AR TRES W  DIS CAZ7
 TURV HZ IP     C  013 38.01                              65    0.2110 34.0  13 
 TURV HN ES        013 42.11                              65   -0.1910 34.0  13 
 MAPV HZ EP        013 43.46                              65   -0.0610 69.8 240 
 MAPV HN ES        013 52.27                              65    0.0310 69.8 240 
 BAUV HZ EP        013 53.90                              65    0.1810  134 186 
 BAUV HN ES        014  9.83                              65   -0.1610  134 186 
                                                                                
 2014  717 1328  9.7 L  10.528 -67.665  8.0  FUN  9 0.7 2.5WFUN                1
 SPEC AVERAGE  MO 12.8 ST  3.8 OM  1.5 f0 6.11 R0.2513 AL 2.18 WI 36.1 MW  2.5 3
 SPEC SD       MO  0.1 ST  3.3 OM  0.2 f0 2.16 R0.0978 AL      WI      MW  0.1 3
 GAP=150        1.82       5.4     2.9  8.7  0.1131E+01  0.9859E+01  0.3192E+01E
 SPEC SIQVHH N MO 12.8 ST0.568 OM  1.4 f0 3.78 R0.3524 AL 2.70 WI 36.2 MW  2.4 3
 SPEC SIQVHH N T1329 8 K 0.000 GD  153 VS 3.60 DE 3.00 Q0440.0 QA 0.70 VS 3.60 3
 SPEC QARVHH N MO 12.6 ST  1.4 OM  1.2 f0 5.72 R0.2329 AL 0.82 WI 21.8 MW  2.4 3
 SPEC QARVHH N T132924 K 0.000 GD  177 VS 3.60 DE 3.00 Q0440.0 QA 0.70 VS 3.60 3
 SPEC MONVHH N MO 12.7 ST0.272 OM  1.3 f0 3.07 R0.4339 AL 1.83 WI 50.1 MW  2.4 3
 SPEC MONVHH N T132916 K 0.000 GD  172 VS 3.60 DE 3.00 Q0440.0 QA 0.70 VS 3.60 3
 SPEC MERVHH N MO 12.8 ST  9.2 OM  1.5 f0 9.06 R0.1470 AL 3.12 WI 35.8 MW  2.5 3
 SPEC MERVHH N T1329 3 K 0.000 GD  143 VS 3.60 DE 3.00 Q0440.0 QA 0.70 VS 3.60 3
 SPEC MAPVHH N MO 13.0 ST  8.3 OM  1.8 f0 7.64 R0.1743 AL 2.82 WI 44.2 MW  2.6 3
 SPEC MAPVHH N T132838 K 0.000 GD  107 VS 3.60 DE 3.00 Q0440.0 QA 0.70 VS 3.60 3
 SPEC FUNVHH N MO 12.8 ST  1.7 OM  1.7 f0 5.12 R0.2602 AL 1.76 WI 22.7 MW  2.5 3
 SPEC FUNVHH N T132835 K 0.000 GD 94.1 VS 3.60 DE 3.00 Q0440.0 QA 0.70 VS 3.60 3
 SPEC CURVHH N MO 13.0 ST  1.0 OM  1.6 f0 3.89 R0.3424 AL 0.94 WI 61.7 MW  2.6 3
 SPEC CURVHH N T132914 K 0.000 GD  160 VS 3.60 DE 3.00 Q0440.0 QA 0.70 VS 3.60 3
 SPEC BIRVHH N MO 12.8 ST  6.0 OM  1.5 f0 8.24 R0.1617 AL 4.23 WI 28.8 MW  2.4 3
 SPEC BIRVHH N T132851 K 0.000 GD  123 VS 3.60 DE 3.00 Q0440.0 QA 0.70 VS 3.60 3
 SPEC BAUVHH N MO 12.7 ST  5.6 OM  1.4 f0 8.50 R0.1567 AL 1.36 WI 23.6 MW  2.4 3
 SPEC BAUVHH N T132857 K 0.000 GD  134 VS 3.60 DE 3.00 Q0440.0 QA 0.70 VS 3.60 3
 ACTION:UP  14-07-17 09:20 OP:mav  STATUS:               ID:20140717132730     I
 OLDACT:UP  14-07-17 09:20 OP:mav  STATUS:               ID:20140717132730     3
 OLDACT:UP  14-07-17 09:18 OP:mav  STATUS:               ID:20140717132730     3
 OLDACT:REG 14-07-17 09:16 OP:mav  STATUS:               ID:20140717132730     3
 2014-07-17-1327-30S.MAN___155                                                 6
 STAT SP IPHASW D HRMM SECON CODA AMPLIT PERI AZIMU VELO AIN AR TRES W  DIS CAZ7
 FUNV HZ EP       1328 25.51                              65    0.1310 93.8  94 
 FUNV HN ES       1328 36.62                              65   -0.3810 93.8  94 
 MAPV HZ EP       1328 27.32                              65   -1.5710  116 228 
 MAPV HN ES       1328 44.49                              65    1.3910  116 228 
 BIRV HZ EP       1328 35.19                              65    0.4810  153  92 
 BIRV HN ES       1328 53.17                              65   -0.0610  153  92 
 BAUV HZ EP       1328 37.40                              43   -0.6410  180 193 
 BAUV HN ES       1328 57.83                              43   -1.1910  180 193 
 MERV HZ EP       1328 41.85                              43    0.6810  206 133 
 MERV HN ES       1329  5.02                              43    0.5510  206 133 
 SIQV HZ EP       1328 44.48                              43   -0.2110  235 273 
 SIQV HN ES       1329 10.76                              43    0.1710  235 273 
 CURV HZ EP       1328 47.95                              43    0.4510  258 257 
 CURV HN ES       1329 15.76                              43    0.2710  258 257 
 MONV HZ EP       1328 52.09                              43   -0.0610  297 302 
 MONV HN ES       1329 23.03                              43   -0.5510  297 302 
 QARV HZ EP       1328 54.70                              43    0.3410  315 264 
 QARV HN ES       1329 27.61                              43    0.1810  315 264 
                                                                                
 2014  717 1341 14.0 L  10.153 -67.926  2.8  FUN  6 0.7 1.9WFUN                1
 SPEC AVERAGE  MO 11.9 ST0.806 OM  0.7 f0 6.95 R0.2363 AL 2.37 WI 21.2 MW  1.9 3
 SPEC SD       MO  0.3 ST0.802 OM  0.2 f0 2.44 R0.1317 AL      WI      MW  0.2 3
 GAP=110        1.90       4.4     4.5  6.9 -0.9356E+01 -0.1463E+02  0.1303E+02E
 SPEC TURVHH N MO 11.5 ST0.418 OM  0.8 f0 8.92 R0.1493 AL 0.77 WI 12.8 MW  1.6 3
 SPEC TURVHH N T134122 K 0.000 GD 34.2 VS 3.60 DE 3.00 Q0440.0 QA 0.70 VS 3.60 3
 SPEC MERVHH N MO 12.2 ST  2.4 OM  0.9 f0 9.16 R0.1454 AL 2.35 WI 18.3 MW  2.1 3
 SPEC MERVHH N T1342 8 K 0.000 GD  143 VS 3.60 DE 3.00 Q0440.0 QA 0.70 VS 3.60 3
 SPEC MAPVHH N MO 11.7 ST0.519 OM  0.7 f0 8.22 R0.1620 AL 3.97 WI 19.3 MW  1.7 3
 SPEC MAPVHH N T134134 K 0.000 GD 68.4 VS 3.60 DE 3.00 Q0440.0 QA 0.70 VS 3.60 3
 SPEC CURVHH N MO 11.6 ST0.014 OM  0.3 f0 2.61 R0.5103 AL 1.94 WI 15.8 MW  1.7 3
 SPEC CURVHH N T134212 K 0.000 GD  149 VS 3.60 DE 3.00 Q0440.0 QA 0.70 VS 3.60 3
 SPEC BIRVHH N MO 12.1 ST  1.2 OM  0.8 f0 8.11 R0.1642 AL 3.52 WI 34.2 MW  2.0 3
 SPEC BIRVHH N T1342 0 K 0.000 GD  136 VS 3.60 DE 3.00 Q0440.0 QA 0.70 VS 3.60 3
 SPEC BAUVHH N MO 12.1 ST0.252 OM  0.9 f0 4.65 R0.2865 AL 1.65 WI 26.6 MW  2.0 3
 SPEC BAUVHH N T134151 K 0.000 GD  115 VS 3.60 DE 3.00 Q0440.0 QA 0.70 VS 3.60 3
 ACTION:UP  14-07-17 09:30 OP:mav  STATUS:               ID:20140717133900     I
 OLDACT:UP  14-07-17 09:30 OP:mav  STATUS:               ID:20140717133900     3
 OLDACT:UP  14-07-17 09:28 OP:mav  STATUS:               ID:20140717133900     3
 OLDACT:REG 14-07-17 09:26 OP:mav  STATUS:               ID:20140717133900     3
 2014-07-17-1339-00S.MAN___155                                                 6
 STAT SP IPHASW D HRMM SECON CODA AMPLIT PERI AZIMU VELO AIN AR TRES W  DIS CAZ7
 TURV HZ EP       1341 19.78                              95   -0.2710 34.1  16 
 TURV HN ES       1341 23.89                              95   -0.6010 34.1  16 
 MAPV HZ EP       1341 26.92                              93    0.8710 68.3 239 
 MAPV HN ES       1341 35.62                              93    0.6910 68.3 239 
 BAUV HZ EP       1341 35.90                              65   -0.6310  134 185 
 BAUV HN ES       1341 51.69                              65   -1.4710  134 185 
 BIRV HZ EP       1341 44.53                              43    0.8710  185  79 
 BIRV HN ES       1342  5.39                              43   -0.1910  185  79 
 MERV HZ EP       1341 46.22                              43    0.1810  205 119 
 MERV HN ES       1342 10.68                              43    0.9710  205 119 
 CURV HZ EP       1341 48.16                              43   -0.2410  224 266 
 CURV HN ES       1342 13.63                              43   -0.1810  224 266 
                                                                                
 2014  717 1342  4.5 L  10.146 -67.908  5.0F FUN  5 0.7 1.8WFUN                1
 SPEC AVERAGE  MO 11.8 ST0.780 OM  0.7 f0 8.41 R0.1749 AL 2.59 WI 18.9 MW  1.8 3
 SPEC SD       MO  0.4 ST0.559 OM  0.2 f0 2.49 R0.0596 AL      WI      MW  0.2 3
 GAP=133        1.63       3.5     4.2  0.0 -0.5364E+01  0.0000E+00  0.0000E+00E
 SPEC TURVHH N MO 11.4 ST0.929 OM  0.7 f0 12.5 R0.1066 AL 5.16 WI 12.4 MW  1.5 3
 SPEC TURVHH N T134213 K 0.000 GD 34.8 VS 3.60 DE 3.00 Q0440.0 QA 0.70 VS 3.60 3
 SPEC MERVHH N MO 12.2 ST  1.7 OM  0.9 f0 8.24 R0.1617 AL 1.55 WI 21.8 MW  2.1 3
 SPEC MERVHH N T134255 K 0.000 GD  142 VS 3.60 DE 3.00 Q0440.0 QA 0.70 VS 3.60 3
 SPEC MAPVHH N MO 11.3 ST0.229 OM  0.3 f0 8.45 R0.1576 AL 1.50 WI 19.8 MW  1.5 3
 SPEC MAPVHH N T134223 K 0.000 GD 69.8 VS 3.60 DE 3.00 Q0440.0 QA 0.70 VS 3.60 3
 SPEC BIRVHH N MO 11.9 ST0.816 OM  0.6 f0 8.22 R0.1620 AL 3.26 WI 18.4 MW  1.9 3
 SPEC BIRVHH N T134254 K 0.000 GD  135 VS 3.60 DE 3.00 Q0440.0 QA 0.70 VS 3.60 3
 SPEC BAUVHH N MO 12.0 ST0.200 OM  0.8 f0 4.65 R0.2865 AL 1.48 WI 21.9 MW  2.0 3
 SPEC BAUVHH N T134242 K 0.000 GD  115 VS 3.60 DE 3.00 Q0440.0 QA 0.70 VS 3.60 3
 ACTION:UP  14-07-17 09:37 OP:mav  STATUS:               ID:20140717133901d    I
 OLDACT:UP  14-07-17 09:36 OP:mav  STATUS:               ID:20140717133901d    3
 OLDACT:UP  14-07-17 09:35 OP:mav  STATUS:               ID:20140717133901d    3
 OLDACT:UP  14-07-17 09:35 OP:mav  STATUS:               ID:20140717133901d    3
 OLDACT:UP  14-07-17 09:34 OP:mav  STATUS:               ID:20140717133901d    3
 OLDACT:DUP 14-07-17 09:31 OP:mav  STATUS:               ID:20140717133901d    3
 OLDACT:UP  14-07-17 09:30 OP:mav  STATUS:               ID:20140717133900     3
 OLDACT:UP  14-07-17 09:28 OP:mav  STATUS:               ID:20140717133900     3
 OLDACT:REG 14-07-17 09:26 OP:mav  STATUS:               ID:20140717133900     3
 2014-07-17-1339-00S.MAN___155                                                 6
 STAT SP IPHASW D HRMM SECON CODA AMPLIT PERI AZIMU VELO AIN AR TRES W  DIS CAZ7
 TURV HZ EP     C 1342 10.28                              98   -0.2810 34.4  13 
 TURV HN ES       1342 14.40                              98   -0.6810 34.4  13 
 MAPV HZ EP       1342 16.67                              65    0.1710 69.6 240 
 MAPV HN ES       1342 25.43                              65    0.0210 69.6 240 
 BAUV HZ EP       1342 26.99                              65    0.3210  134 186 
 BAUV HN ES       1342 42.42                              65   -0.6910  134 186 
 BIRV HZ EP       1342 35.29                              43    1.7110  183  78 
 BIRV HN ES       1342 55.20                              43    0.0710  183  78 
 MERV HZ EP       1342 36.29                              43    0.3810  203 119 
 MERV HN ES       1342 58.16                              43   -1.0310  203 119 
                                                                                
 2014  718 2234  0.4 L  10.167 -67.923  5.0F FUN  4 0.6 1.8WFUN                1
 SPEC AVERAGE  MO 11.8 ST0.049 OM  0.8 f0 2.70 R0.6185 AL 2.37 WI 11.3 MW  1.8 3
 SPEC SD       MO  0.2 ST0.045 OM  0.1 f0 1.05 R0.3340 AL      WI      MW  0.2 3
 GAP=139        1.38       3.4     4.5  0.0 -0.8219E+01  0.0000E+00  0.0000E+00E
 SPEC TURVHH N MO 11.5 ST0.007 OM  0.8 f0 2.35 R0.5668 AL 1.61 WI  7.5 MW  1.6 3
 SPEC TURVHH N T2234 9 K 0.000 GD 32.9 VS 3.60 DE 3.00 Q0440.0 QA 0.70 VS 3.60 3
 SPEC MAPVHH N MO 11.7 ST0.001 OM  0.7 f0 1.13 R1.1788 AL 2.46 WI 12.8 MW  1.7 3
 SPEC MAPVHH N T223422 K 0.000 GD 69.6 VS 3.60 DE 3.00 Q0440.0 QA 0.70 VS 3.60 3
 SPEC BIRVHH N MO 12.0 ST0.099 OM  0.7 f0 3.76 R0.3543 AL 2.93 WI 12.8 MW  1.9 3
 SPEC BIRVHH N T223453 K 0.000 GD  135 VS 3.60 DE 3.00 Q0440.0 QA 0.70 VS 3.60 3
 SPEC BAUVHH N MO 12.0 ST0.091 OM  0.8 f0 3.56 R0.3742 AL 2.46 WI 12.3 MW  2.0 3
 SPEC BAUVHH N T223437 K 0.000 GD  116 VS 3.60 DE 3.00 Q0440.0 QA 0.70 VS 3.60 3
 ACTION:UP  14-07-18 18:43 OP:rap  STATUS:               ID:20140718223200     I
 OLDACT:UP  14-07-18 18:42 OP:rap  STATUS:               ID:20140718223200     3
 OLDACT:REG 14-07-18 18:41 OP:rap  STATUS:               ID:20140718223200     3
 2014-07-18-2232-00S.MAN___155                                                 6
 STAT SP IPHASW D HRMM SECON CODA AMPLIT PERI AZIMU VELO AIN AR TRES W  DIS CAZ7
 TURV HZ IP     C 2234  5.92                              99   -0.2810 32.5  16 
 TURV HN ES       2234  9.95                              99   -0.5210 32.5  16 
 MAPV HZ EP       2234 12.56                              65    0.1210 69.4 238 
 MAPV HN ES       2234 22.14                              65    0.8110 69.4 238 
 BAUV HZ EP       2234 22.05                              65   -0.9310  136 186 
 BAUV HN ES       2234 39.19                              65   -0.4910  136 186 
 BIRV HZ EP       2234 30.04                              43    0.3510  184  79 
 BIRV HN ES       2234 52.28                              43    0.9410  184  79 
                                                                                
 2014  719 1816 37.6 L  10.180 -68.047  5.0F FUN  3 0.4 1.9WFUN                1
 SPEC AVERAGE  MO 11.9 ST  1.0 OM  0.8 f0 8.93 R0.1511 AL 1.55 WI 12.0 MW  1.9 3
 SPEC SD       MO  0.1 ST0.326 OM  0.2 f00.968 R0.0176 AL      WI      MW  0.0 3
 GAP=218        0.86       3.5     7.8  0.0 -0.2242E+02  0.0000E+00  0.0000E+00E
 SPEC TURVHH N MO 11.8 ST0.566 OM  1.1 f0 7.58 R0.1757 AL 0.67 WI 10.9 MW  1.8 3
 SPEC TURVHH N T181646 K 0.000 GD 37.8 VS 3.60 DE 3.00 Q0440.0 QA 0.70 VS 3.60 3
 SPEC BIRVHH N MO 11.8 ST  1.1 OM  0.5 f0 9.80 R0.1359 AL 3.97 WI 11.2 MW  1.8 3
 SPEC BIRVHH N T181732 K 0.000 GD  140 VS 3.60 DE 3.00 Q0440.0 QA 0.70 VS 3.60 3
 SPEC BAUVHH N MO 11.9 ST  1.3 OM  0.7 f0 9.41 R0.1416 AL 0.00 WI 14.0 MW  1.9 3
 SPEC BAUVHH N T181714 K 0.000 GD  117 VS 3.60 DE 3.00 Q0440.0 QA 0.70 VS 3.60 3
 ACTION:UP  14-07-20 06:38 OP:re   STATUS:               ID:20140719181500     I
 OLDACT:UP  14-07-20 06:38 OP:re   STATUS:               ID:20140719181500     3
 OLDACT:UP  14-07-20 06:37 OP:re   STATUS:               ID:20140719181500     3
 OLDACT:UP  14-07-20 06:37 OP:re   STATUS:               ID:20140719181500     3
 OLDACT:UP  14-07-20 06:36 OP:re   STATUS:               ID:20140719181500     3
 OLDACT:UP  14-07-20 06:35 OP:re   STATUS:               ID:20140719181500     3
 OLDACT:REG 14-07-20 06:35 OP:re   STATUS:               ID:20140719181500     3
 2014-07-19-1815-00S.MAN___155                                                 6
 STAT SP IPHASW D HRMM SECON CODA AMPLIT PERI AZIMU VELO AIN AR TRES W  DIS CAZ7
 TURV HZ IP     C 1816 44.49                              98    0.2210 37.5  37 
 TURV HN ES       1816 48.62                              98   -0.5610 37.5  37 
 BAUV HZ EP       1817  0.71                              65    0.3910  137 180 
 BAUV HN ES       1817 16.56                              65   -0.5510  137 180 
 BIRV HZ EP       1817  8.76                              43    0.2810  197  80 
 BIRV HN ES       1817 31.52                              43    0.2210  197  80 
                                                                                
