 2014  7 1 0129  9.3 L  10.050 -68.197  0.5  FUN  8 0.6 2.0WFUN                1
 SPEC AVERAGE  MO 12.1 ST0.589 OM  0.9 f0 5.26 R0.2752 AL 2.02 WI 15.7 MW  2.0 3
 SPEC SD       MO  0.4 ST0.620 OM  0.5 f0 1.60 R0.0746 AL      WI      MW  0.2 3
 GAP= 95        1.62       3.4     3.0  5.2 -0.3779E+01  0.3772E+01 -0.4190E+01E
 SPEC TURVHH E MO 11.9 ST0.298 OM  1.0 f0 5.70 R0.2337 AL 1.20 WI 10.1 MW  1.9 3
 SPEC TURVHH E T 12925 K 0.000 GD 59.0 VS 3.60 DE 3.00 Q0440.0 QA 0.70 VS 3.60 3
 SPEC SIQVHH E MO 11.7 ST0.069 OM  0.4 f0 4.19 R0.3179 AL 3.09 WI 18.1 MW  1.7 3
 SPEC SIQVHH E T 130 2 K 0.000 GD  137 VS 3.60 DE 3.00 Q0440.0 QA 0.70 VS 3.60 3
 SPEC SANVHH E MO 12.5 ST0.228 OM  1.2 f0 3.47 R0.3839 AL 2.31 WI 16.3 MW  2.3 3
 SPEC SANVHH E T 12952 K 0.000 GD  126 VS 3.60 DE 3.00 Q0440.0 QA 0.70 VS 3.60 3
 SPEC MONVHH E MO 11.4 ST0.029 OM  0.0 f0 3.97 R0.3355 AL 0.84 WI 18.5 MW  1.5 3
 SPEC MONVHH E T 13019 K 0.000 GD  169 VS 3.60 DE 3.00 Q0440.0 QA 0.70 VS 3.60 3
 SPEC MAPVHH E MO 12.2 ST  1.7 OM  1.5 f0 8.08 R0.1649 AL 1.59 WI  6.6 MW  2.1 3
 SPEC MAPVHH E T 12919 K 0.000 GD 37.5 VS 3.60 DE 3.00 Q0440.0 QA 0.70 VS 3.60 3
 SPEC BIRVHH N MO 12.3 ST  1.4 OM  1.0 f0 6.99 R0.1906 AL 2.81 WI 16.7 MW  2.2 3
 SPEC BIRVHH N T 130 8 K 0.000 GD  146 VS 3.60 DE 3.00 Q0440.0 QA 0.70 VS 3.60 3
 SPEC BAUVHH N MO 12.4 ST0.422 OM  1.2 f0 4.44 R0.3000 AL 2.29 WI 23.3 MW  2.2 3
 SPEC BAUVHH N T 12944 K 0.000 GD  111 VS 3.60 DE 3.00 Q0440.0 QA 0.70 VS 3.60 3
 ACTION:UP  14-06-30 23:02 OP:they STATUS:               ID:20140701012800     I
 OLDACT:UP  14-06-30 23:01 OP:they STATUS:               ID:20140701012800     3
 OLDACT:REG 14-06-30 22:58 OP:they STATUS:               ID:20140701012800     3
 2014-07-01-0128-00S.MAN___155                                                 6
 STAT SP IPHASW D HRMM SECON CODA AMPLIT PERI AZIMU VELO AIN AR TRES W  DIS CAZ7
 MAPV HZ EP        129 15.68                              91   -0.2210 37.5 230 
 MAPV HE ES        129 20.61                              91   -0.1610 37.5 230 
 TURV HZ EP        129 19.72                              91    0.0310 59.0  41 
 TURV HE ES        129 27.21                              91   -0.1410 59.0  41 
 BAUV HZ EP        129 29.70                              65   -0.5510  124 172 
 BAUV HN ES        129 45.15                              65   -0.5810  124 172 
 SANV HZ EP        129 36.66                              65    0.7010  159 248 
 SANV HE ES        129 56.12                              65    0.4510  159 248 
 SIQV HZ EP        129 39.94                              43    0.2410  189 291 
 SIQV HE ES     D  130  1.81                              43   -0.3610  189 291 
 CURV HE ES        130  4.09                              43    0.8010  194 269 
 BIRV HZ EP        129 43.35                              43    0.3310  216  77 
 BIRV HN ES        130  8.50                              43    0.5410  216  77 
 MONV HZ EP        129 51.95                              43    0.5010  286 318 
 MONV HE ES        130 21.04                              43   -1.5810  286 318 
                                                                                
 2014  7 4 1243 24.5 L  10.217 -67.757  5.6  FUN  4 0.3 1.6WFUN                1
 SPEC AVERAGE  MO 11.5 ST0.275 OM  0.4 f0 7.34 R0.1832 AL 1.58 WI 15.1 MW  1.6 3
 SPEC SD       MO  0.2 ST0.196 OM  0.3 f00.693 R0.0179 AL      WI      MW  0.1 3
 GAP=113        0.75       2.7     4.5  6.7 -0.8091E+01 -0.2490E+02  0.1461E+02E
 SPEC TURVHH N MO 11.4 ST0.127 OM  0.8 f0 6.43 R0.2072 AL 0.86 WI  6.1 MW  1.6 3
 SPEC TURVHH N T124332 K 0.000 GD 27.8 VS 3.60 DE 3.00 Q0440.0 QA 0.70 VS 3.60 3
 SPEC BIRVHH E MO 11.3 ST0.147 OM  0.0 f0 7.48 R0.1781 AL 2.18 WI 18.2 MW  1.5 3
 SPEC BIRVHH E T124411 K 0.000 GD  128 VS 3.60 DE 3.00 Q0440.0 QA 0.70 VS 3.60 3
 SPEC BAUVHH N MO 11.7 ST0.552 OM  0.5 f0 8.11 R0.1642 AL 1.69 WI 21.1 MW  1.8 3
 SPEC BAUVHH N T1244 2 K 0.000 GD  119 VS 3.60 DE 3.00 Q0440.0 QA 0.70 VS 3.60 3
 ACTION:UP  14-07-04 08:34 OP:will STATUS:               ID:20140704124100     I
 OLDACT:UP  14-07-04 08:33 OP:will STATUS:               ID:20140704124100     3
 OLDACT:UP  14-07-04 08:31 OP:will STATUS:               ID:20140704124100     3
 OLDACT:UP  14-07-04 08:30 OP:will STATUS:               ID:20140704124100     3
 OLDACT:UP  14-07-04 08:30 OP:will STATUS:               ID:20140704124100     3
 OLDACT:UP  14-07-04 08:28 OP:will STATUS:               ID:20140704124100     3
 OLDACT:UP  14-07-04 08:28 OP:will STATUS:               ID:20140704124100     3
 OLDACT:UP  14-07-04 08:27 OP:will STATUS:               ID:20140704124100     3
 OLDACT:REG 14-07-04 08:27 OP:will STATUS:               ID:20140704124100     3
 2014-07-04-1241-00S.MAN___155                                                 6
 STAT SP IPHASW D HRMM SECON CODA AMPLIT PERI AZIMU VELO AIN AR TRES W  DIS CAZ7
 TURV HZ EP       1243 29.52                             102    0.1410 27.2 341 
 TURV HN ES       1243 32.77                             102   -0.2210 27.2 341 
 BAUV HN ES       1244  5.55                              65   -0.4410  144 193 
 BIRV HZ EP       1243 51.23                              43   -0.1810  165  80 
 BIRV HE ES       1244 11.40                              43    0.0710  165  80 
 SANV HZ EP       1243 57.14                              43    0.1610  211 248 
 BAUV HZ EP       1243 48.80                              65    0.4610  144 193 
                                                                                
 2014  7 5 0951 47.0 L  10.263 -67.576  5.0F FUN  8 0.7 2.0WFUN                1
 SPEC AVERAGE  MO 12.1 ST0.426 OM  0.9 f0 4.77 R0.3029 AL 1.69 WI 22.5 MW  2.0 3
 SPEC SD       MO  0.4 ST0.497 OM  0.4 f0 1.42 R0.0854 AL      WI      MW  0.2 3
 GAP=129        1.68       3.9     2.6  0.0  0.6778E+00  0.0000E+00  0.0000E+00E
 SPEC TURVHH E MO 11.9 ST0.111 OM  1.2 f0 4.16 R0.3202 AL 0.54 WI 24.7 MW  1.9 3
 SPEC TURVHH E T 95155 K 0.000 GD 35.8 VS 3.60 DE 3.00 Q0440.0 QA 0.70 VS 3.60 3
 SPEC MONVHH N MO 11.4 ST0.049 OM  0.0 f0 4.65 R0.2865 AL 1.55 WI 21.6 MW  1.6 3
 SPEC MONVHH N T 953 5 K 0.000 GD  179 VS 3.60 DE 3.00 Q0440.0 QA 0.70 VS 3.60 3
 SPEC MERVHH E MO 12.3 ST0.329 OM  1.0 f0 4.48 R0.2973 AL 1.06 WI 20.3 MW  2.1 3
 SPEC MERVHH E T 95237 K 0.000 GD  134 VS 3.60 DE 3.00 Q0440.0 QA 0.70 VS 3.60 3
 SPEC FUNVHH N MO 12.0 ST0.288 OM  0.9 f0 5.34 R0.2494 AL 1.83 WI 20.3 MW  1.9 3
 SPEC FUNVHH N T 95213 K 0.000 GD 87.1 VS 3.60 DE 3.00 Q0440.0 QA 0.70 VS 3.60 3
 SPEC CURVHH N MO 12.0 ST0.039 OM  0.6 f0 2.80 R0.4757 AL 1.37 WI 28.2 MW  1.9 3
 SPEC CURVHH N T 95255 K 0.000 GD  162 VS 3.60 DE 3.00 Q0440.0 QA 0.70 VS 3.60 3
 SPEC BIRVHH N MO 12.2 ST  1.6 OM  1.0 f0 7.79 R0.1710 AL 4.36 WI 17.6 MW  2.1 3
 SPEC BIRVHH N T 95228 K 0.000 GD  120 VS 3.60 DE 3.00 Q0440.0 QA 0.70 VS 3.60 3
 SPEC BAUVHH E MO 12.7 ST0.614 OM  1.4 f0 4.16 R0.3202 AL 1.09 WI 24.7 MW  2.4 3
 SPEC BAUVHH E T 95228 K 0.000 GD  124 VS 3.60 DE 3.00 Q0440.0 QA 0.70 VS 3.60 3
 ACTION:UP  14-07-05 05:40 OP:they STATUS:               ID:20140705095100     I
 OLDACT:UP  14-07-05 05:39 OP:they STATUS:               ID:20140705095100     3
 OLDACT:UP  14-07-05 05:34 OP:they STATUS:               ID:20140705095100     3
 OLDACT:REG 14-07-05 05:34 OP:they STATUS:               ID:20140705095100     3
 2014-07-05-0951-00S.MAN___155                                                 6
 STAT SP IPHASW D HRMM SECON CODA AMPLIT PERI AZIMU VELO AIN AR TRES W  DIS CAZ7
 TURV HZ EP        951 52.83                              98   -0.4510 35.4 306 
 TURV HE ES        951 57.12                              98   -0.8110 35.4 306 
 FUNV HZ EP        952  0.76                              65   -1.0910 87.0  75 
 FUNV HN ES        952 12.42                              65   -0.4110 87.0  75 
 BIRV HZ EP        952 11.20                              65    0.1810  145  81 
 BIRV HN ES        952 29.08                              65    0.2910  145  81 
 BAUV HZ EP        952 11.85                              65   -0.6810  155 199 
 BAUV HE ES        952 30.15                              65   -1.2710  155 199 
 MERV HZ EP        952 16.40                              43    0.7110  180 128 
 MERV HE ES        952 37.68                              43    0.7710  180 128 
 SANV HN ES        952 48.64                              43    0.7510  231 249 
 CURV HZ EP        952 27.03                              43    1.2310  263 264 
 CURV HN ES        952 54.87                              43    0.3710  263 264 
 MONV HZ EP        952 32.81                              43    0.0110  322 306 
 MONV HN ES        953  7.08                              43    0.3910  322 306 
                                                                                
 2014  7 6 1458 23.0 L  10.165 -67.904 13.9  FUN  3 0.1 1.5WFUN                1
 SPEC AVERAGE  MO 11.4 ST0.015 OM  0.4 f0 2.66 R0.5793 AL 2.72 WI 13.0 MW  1.5 3
 SPEC SD       MO  0.1 ST0.016 OM  0.2 f0 1.02 R0.2141 AL      WI      MW  0.1 3
 GAP=174        0.42       2.5     2.1 17.8 -0.1563E+01 -0.2140E+01  0.3995E+02E
 SPEC TURVHH N MO 11.4 ST0.007 OM  0.7 f0 2.41 R0.5527 AL 2.98 WI 16.7 MW  1.6 3
 SPEC TURVHH N T145832 K 0.000 GD 35.1 VS 3.60 DE 3.00 Q0440.0 QA 0.70 VS 3.60 3
 SPEC MAPVHH N MO 11.2 ST0.001 OM  0.2 f0 1.56 R0.8538 AL 1.80 WI 13.2 MW  1.4 3
 SPEC MAPVHH N T145844 K 0.000 GD 72.4 VS 3.60 DE 3.00 Q0440.0 QA 0.70 VS 3.60 3
 SPEC BAUVHH N MO 11.5 ST0.038 OM  0.2 f0 4.02 R0.3313 AL 3.37 WI  9.2 MW  1.6 3
 SPEC BAUVHH N T1459 1 K 0.000 GD  136 VS 3.60 DE 3.00 Q0440.0 QA 0.70 VS 3.60 3
 ACTION:UP  14-07-06 12:36 OP:rap  STATUS:               ID:20140706145600     I
 OLDACT:UP  14-07-06 12:35 OP:rap  STATUS:               ID:20140706145600     3
 OLDACT:REG 14-07-06 12:34 OP:rap  STATUS:               ID:20140706145600     3
 2014-07-06-1456-00S.MAN___155                                                 6
 STAT SP IPHASW D HRMM SECON CODA AMPLIT PERI AZIMU VELO AIN AR TRES W  DIS CAZ7
 TURV HZ EP     C 1458 29.12                             107    0.1510 32.2  13 
 TURV HN ES       1458 33.26                             107   -0.0910 32.2  13 
 MAPV HZ EP       1458 34.86                              95   -0.2110 71.1 239 
 MAPV HN ES       1458 44.08                              95    0.1210 71.1 239 
 BAUV HZ EP       1458 45.38                              92    0.0510  136 186 
 BAUV HN ES       1459  1.78                              92   -0.0310  136 186 
                                                                                
 2014  710 0833  2.5 L  10.147 -67.985  5.0F FUN  3 0.2 1.8WFUN                1
 SPEC AVERAGE  MO 11.8 ST0.212 OM  0.7 f0 5.39 R0.2484 AL 2.04 WI 18.1 MW  1.8 3
 SPEC SD       MO  0.3 ST0.118 OM  0.0 f00.358 R0.0168 AL      WI      MW  0.2 3
 GAP=203        0.57      82.6   184.1149.2 -0.1522E+05 -0.2746E+05  0.1233E+05E
 SPEC TURVHH N MO 11.4 ST0.082 OM  0.7 f0 5.45 R0.2444 AL 1.19 WI 22.0 MW  1.6 3
 SPEC TURVHH N T 83311 K 0.000 GD 37.1 VS 3.60 DE 3.00 Q0440.0 QA 0.70 VS 3.60 3
 SPEC BIRVHH N MO 12.0 ST0.367 OM  0.7 f0 5.79 R0.2301 AL 2.74 WI 18.1 MW  1.9 3
 SPEC BIRVHH N T 83355 K 0.000 GD  138 VS 3.60 DE 3.00 Q0440.0 QA 0.70 VS 3.60 3
 SPEC BAUVHH N MO 11.9 ST0.188 OM  0.7 f0 4.92 R0.2707 AL 2.20 WI 14.1 MW  1.9 3
 SPEC BAUVHH N T 83342 K 0.000 GD  115 VS 3.60 DE 3.00 Q0440.0 QA 0.70 VS 3.60 3
 ACTION:UP  14-07-10 06:12 OP:mu   STATUS:               ID:20140710083200     I
 OLDACT:UP  14-07-10 06:09 OP:mu   STATUS:               ID:20140710083200     3
 OLDACT:UP  14-07-10 06:08 OP:mu   STATUS:               ID:20140710083200     3
 OLDACT:REG 14-07-10 06:08 OP:mu   STATUS:               ID:20140710083200     3
 2014-07-10-0832-00S.MAN___155                                                 6
 STAT SP IPHASW D HRMM SECON CODA AMPLIT PERI AZIMU VELO AIN AR TRES W  DIS CAZ7
 TURV HZ EP        833  9.28                              90    0.3110 37.1  25 
 TURV HN ES        833 13.51                              90   -0.2810 37.1  25 
 BAUV HZ EP        833 25.07                              65    0.1110  133 183 
 BAUV HN ES        833 41.46                              65   -0.1510  133 183 
 BIRV HZ EP        833 33.12                              43   -0.1010  191  79 
 BIRV HN ES        833 56.10                              43    0.1110  191  79 
                                                                                
 2014  711 0848 36.6 L  10.277 -67.894  4.5  FUN  3 0.2 1.8WFUN                1
 SPEC AVERAGE  MO 11.8 ST0.173 OM  0.8 f0 4.94 R0.2786 AL 2.99 WI 10.1 MW  1.8 3
 SPEC SD       MO  0.1 ST0.120 OM  0.2 f00.900 R0.0497 AL      WI      MW  0.1 3
 GAP=191        0.63     999.9   999.9999.9 -0.3309E+07 -0.5503E+07  0.2844E+07E
 SPEC TURVHH N MO 11.6 ST0.042 OM  1.1 f0 3.92 R0.3398 AL 1.66 WI  7.9 MW  1.7 3
 SPEC TURVHH N T 84841 K 0.000 GD 20.5 VS 3.60 DE 3.00 Q0440.0 QA 0.70 VS 3.60 3
 SPEC BIRVHH N MO 11.9 ST0.332 OM  0.6 f0 6.11 R0.2180 AL 4.32 WI 11.9 MW  1.9 3
 SPEC BIRVHH N T 84926 K 0.000 GD  133 VS 3.60 DE 3.00 Q0440.0 QA 0.70 VS 3.60 3
 SPEC BAUVHH N MO 11.9 ST0.145 OM  0.6 f0 4.79 R0.2781 AL 2.99 WI 10.6 MW  1.8 3
 SPEC BAUVHH N T 84918 K 0.000 GD  121 VS 3.60 DE 3.00 Q0440.0 QA 0.70 VS 3.60 3
 ACTION:UP  14-07-11 05:49 OP:rap  STATUS:               ID:20140711084501d    I
 OLDACT:REG 14-07-11 05:40 OP:rap  STATUS:               ID:20140711084500     3
 2014-07-11-0845-00S.MAN___155                                                 6
 STAT SP IPHASW D HRMM SECON CODA AMPLIT PERI AZIMU VELO AIN AR TRES W  DIS CAZ7
 TURV HZ EP        848 40.19                             103   -0.0510 20.0  17 
 TURV HN ES        848 42.90                             103   -0.0110 20.0  17 
 BAUV HZ EP        849  1.60                              65    0.4010  148 186 
 BAUV HN ES        849 19.11                              65   -0.2610  148 186 
 BIRV HZ EP        849  5.14                              43   -0.2110  179  83 
 BIRV HN ES        849 26.73                              43    0.1310  179  83 
                                                                                
 2014  715 0030 42.9 L  10.152 -67.921  5.0F FUN  4 0.5 2.1WFUN                1
 SPEC AVERAGE  MO 12.2 ST  1.1 OM  1.2 f0 6.57 R0.2126 AL 0.63 WI 15.4 MW  2.1 3
 SPEC SD       MO  0.1 ST0.527 OM  0.2 f0 1.37 R0.0480 AL      WI      MW  0.0 3
 GAP=136        1.21       2.9     3.9  0.0 -0.5997E+01  0.0000E+00  0.0000E+00E
 SPEC TURVHH N MO 12.2 ST0.327 OM  1.5 f0 4.79 R0.2781 AL 1.88 WI 15.7 MW  2.1 3
 SPEC TURVHH N T 03051 K 0.000 GD 34.5 VS 3.60 DE 3.00 Q0440.0 QA 0.70 VS 3.60 3
 SPEC BIRVHH N MO 12.2 ST  1.6 OM  0.9 f0 8.11 R0.1642 AL 0.00 WI 19.5 MW  2.1 3
 SPEC BIRVHH N T 03136 K 0.000 GD  135 VS 3.60 DE 3.00 Q0440.0 QA 0.70 VS 3.60 3
 SPEC BAUVHH N MO 12.3 ST  1.3 OM  1.1 f0 6.81 R0.1956 AL 0.00 WI 11.1 MW  2.2 3
 SPEC BAUVHH N T 03121 K 0.000 GD  115 VS 3.60 DE 3.00 Q0440.0 QA 0.70 VS 3.60 3
 ACTION:UP  14-07-15 05:46 OP:re   STATUS:               ID:20140715002900     I
 OLDACT:UP  14-07-15 05:45 OP:re   STATUS:               ID:20140715002900     3
 OLDACT:UP  14-07-15 05:45 OP:re   STATUS:               ID:20140715002900     3
 OLDACT:UP  14-07-15 05:43 OP:re   STATUS:               ID:20140715002900     3
 OLDACT:REG 14-07-15 05:42 OP:re   STATUS:               ID:20140715002900     3
 2014-07-15-0029-00S.MAN___155                                                 6
 STAT SP IPHASW D HRMM SECON CODA AMPLIT PERI AZIMU VELO AIN AR TRES W  DIS CAZ7
 TURV HZ IP     C  030 48.67                              98   -0.2410 34.1  15 
 TURV HN IS        030 52.80                              98   -0.5810 34.1  15 
 MAPV HZ EP        030 54.87                              65    0.0910 68.7 239 
 MAPV HN ES        031  4.26                              65    0.6710 68.7 239 
 BAUV HZ EP        031  4.67                              65   -0.5010  134 186 
 BAUV HN ES        031 20.98                              65   -0.7010  134 186 
 BIRV HZ EP        031 12.84                              43    0.7010  184  79 
 BIRV HN ES        031 34.38                              43    0.5710  184  79 
                                                                                
 2014  715 0039 47.8 L  10.158 -67.894  5.0F FUN  4 0.6 2.3WFUN                1
 SPEC AVERAGE  MO 12.5 ST0.275 OM  1.2 f0 4.42 R0.3766 AL 1.00 WI 19.5 MW  2.3 3
 SPEC SD       MO  0.1 ST0.142 OM  0.1 f0 1.90 R0.0541 AL      WI      MW  0.1 3
 GAP=131        1.27       3.0     4.0  0.0 -0.5739E+01  0.0000E+00  0.0000E+00E
 SPEC TURVHH N MO 12.5 ST0.518 OM  1.1 f0 7.69 R0.2983 AL 0.64 WI 18.3 MW  2.3 3
 SPEC TURVHH N T 03954 K 0.000 GD 33.2 VP 6.20 DE 3.00 Q0440.0 QA 0.70 VS 3.60 3
 SPEC MAPVHH N MO 12.2 ST0.165 OM  1.2 f0 3.76 R0.3543 AL 2.26 WI 16.1 MW  2.1 3
 SPEC MAPVHH N T 040 9 K 0.000 GD 71.7 VS 3.60 DE 3.00 Q0440.0 QA 0.70 VS 3.60 3
 SPEC BIRVHH N MO 12.6 ST0.225 OM  1.3 f0 3.13 R0.4256 AL 0.00 WI 24.7 MW  2.3 3
 SPEC BIRVHH N T 04038 K 0.000 GD  134 VS 3.60 DE 3.00 Q0440.0 QA 0.70 VS 3.60 3
 SPEC BAUVHH N MO 12.5 ST0.190 OM  1.3 f0 3.11 R0.4283 AL 1.09 WI 18.8 MW  2.3 3
 SPEC BAUVHH N T 04024 K 0.000 GD  116 VS 3.60 DE 3.00 Q0440.0 QA 0.70 VS 3.60 3
 ACTION:UP  14-07-15 05:51 OP:re   STATUS:               ID:20140715003900     I
 OLDACT:UP  14-07-15 05:50 OP:re   STATUS:               ID:20140715003900     3
 OLDACT:UP  14-07-15 05:50 OP:re   STATUS:               ID:20140715003900     3
 OLDACT:REG 14-07-15 05:47 OP:re   STATUS:               ID:20140715003900     3
 2014-07-15-0039-00S.MAN___155                                                 6
 STAT SP IPHASW D HRMM SECON CODA AMPLIT PERI AZIMU VELO AIN AR TRES W  DIS CAZ7
 TURV HZ IP     C  039 53.29                              99   -0.3010 32.8  11 
 TURV HN IS        039 57.40                              99   -0.5010 32.8  11 
 MAPV HZ EP        040  0.31                              65    0.1910 71.5 240 
 MAPV HN ES        040 10.03                              65    0.7710 71.5 240 
 BAUV HZ EP        040  9.52                              65   -0.7010  135 187 
 BAUV HN ES        040 26.23                              65   -0.6110  135 187 
 BIRV HZ EP        040 16.98                              43    0.2910  181  79 
 BIRV HN ES        040 38.95                              43    0.8610  181  79 
                                                                                
